{"type":"Feature","properties":{"name":"Brasil"},"geometry":{"type":"MultiPolygon","coordinates":[[[[-66.876,1.223],[-66.347,0.767],[-66.06,0.785],[-65.681,0.983],[-65.566,0.926],[-65.523,0.843],[-65.556,0.688],[-65.473,0.691],[-65.361,0.869],[-65.104,1.108],[-64.818,1.257],[-64.732,1.253],[-64.486,1.453],[-64.304,1.455],[-64.205,1.529],[-64.115,1.619],[-64.008,1.932],[-63.433,2.156],[-63.394,2.223],[-63.389,2.412],[-63.924,2.452],[-64.047,2.502],[-64.009,2.672],[-64.038,2.802],[-64.219,3.205],[-64.221,3.587],[-64.669,4.012],[-64.818,4.232],[-64.789,4.276],[-64.722,4.274],[-64.576,4.14],[-64.192,4.127],[-64.021,3.929],[-63.653,3.941],[-63.527,3.894],[-63.339,3.944],[-62.969,3.594],[-62.857,3.593],[-62.765,3.673],[-62.712,4.018],[-62.61,4.042],[-62.411,4.157],[-62.153,4.098],[-61.821,4.197],[-61.554,4.288],[-61.479,4.402],[-61.368,4.433],[-61.28,4.517],[-61.102,4.505],[-61.003,4.535],[-60.906,4.687],[-60.742,4.774],[-60.628,4.893],[-60.604,4.995],[-60.635,5.082],[-60.672,5.164],[-60.742,5.202],[-60.651,5.221],[-60.46,5.188],[-60.335,5.199],[-60.242,5.258],[-60.142,5.239],[-60.078,5.144],[-59.991,5.083],[-60.032,4.741],[-60.149,4.533],[-59.833,4.476],[-59.703,4.381],[-59.739,4.227],[-59.551,3.934],[-59.679,3.7],[-59.854,3.587],[-59.831,3.349],[-59.972,2.99],[-59.994,2.69],[-59.89,2.363],[-59.755,2.274],[-59.756,1.901],[-59.669,1.842],[-59.667,1.746],[-59.536,1.7],[-59.231,1.376],[-58.969,1.305],[-58.862,1.204],[-58.787,1.208],[-58.685,1.281],[-58.512,1.285],[-58.487,1.348],[-58.506,1.439],[-58.396,1.482],[-58.341,1.588],[-58.142,1.517],[-58.035,1.52],[-57.983,1.648],[-57.796,1.7],[-57.594,1.704],[-57.367,1.94],[-57.119,2.014],[-57.01,1.921],[-56.837,1.881],[-56.616,1.923],[-56.564,1.907],[-56.483,1.942],[-56.02,1.842],[-55.963,1.857],[-55.93,1.887],[-55.915,2.04],[-56.074,2.237],[-56.138,2.259],[-56.129,2.3],[-56.02,2.393],[-55.994,2.498],[-55.957,2.52],[-55.731,2.406],[-55.385,2.441],[-55.344,2.489],[-55.188,2.548],[-55.07,2.548],[-54.979,2.598],[-54.876,2.45],[-54.722,2.442],[-54.662,2.328],[-54.55,2.293],[-54.433,2.208],[-54.13,2.121],[-53.768,2.355],[-53.735,2.309],[-53.509,2.253],[-53.334,2.34],[-53.23,2.205],[-52.965,2.184],[-52.653,2.426],[-52.559,2.573],[-52.555,2.648],[-52.418,2.904],[-52.328,3.182],[-52.163,3.365],[-51.991,3.702],[-51.827,3.87],[-51.767,3.993],[-51.653,4.061],[-51.558,4.234],[-51.547,4.311],[-51.462,4.314],[-51.327,4.225],[-51.22,4.094],[-51.076,3.672],[-51.052,3.282],[-50.994,3.078],[-50.679,2.21],[-50.714,2.134],[-50.609,2.104],[-50.576,1.999],[-50.459,1.83],[-50.188,1.786],[-49.957,1.66],[-49.882,1.42],[-49.899,1.163],[-50.294,0.836],[-50.755,0.223],[-50.816,0.173],[-50.967,0.13],[-51.102,-0.031],[-51.283,-0.085],[-51.404,-0.393],[-51.703,-0.762],[-51.721,-1.018],[-51.922,-1.181],[-51.934,-1.32],[-51.981,-1.368],[-52.02,-1.399],[-52.229,-1.363],[-52.664,-1.552],[-52.31,-1.56],[-52.197,-1.64],[-51.948,-1.587],[-51.646,-1.394],[-51.297,-1.224],[-50.895,-0.938],[-50.838,-1.039],[-50.918,-1.115],[-50.845,-1.226],[-50.786,-1.49],[-50.679,-1.644],[-50.69,-1.762],[-50.403,-2.016],[-50.117,-1.858],[-49.999,-1.832],[-49.72,-1.926],[-49.314,-1.732],[-49.507,-2.28],[-49.553,-2.52],[-49.637,-2.657],[-49.524,-2.597],[-49.458,-2.505],[-49.211,-1.917],[-48.991,-1.83],[-48.71,-1.488],[-48.6,-1.489],[-48.463,-1.614],[-48.446,-1.52],[-48.35,-1.482],[-48.451,-1.436],[-48.468,-1.394],[-48.478,-1.324],[-48.409,-1.229],[-48.45,-1.146],[-48.306,-1.04],[-48.318,-0.961],[-48.202,-0.828],[-48.128,-0.795],[-48.115,-0.738],[-48.033,-0.705],[-47.961,-0.77],[-47.808,-0.663],[-47.687,-0.725],[-47.557,-0.67],[-47.419,-0.766],[-47.46,-0.681],[-47.439,-0.648],[-47.398,-0.627],[-47.269,-0.645],[-47.127,-0.745],[-46.944,-0.743],[-46.894,-0.78],[-46.811,-0.78],[-46.617,-0.971],[-46.422,-1.03],[-46.219,-1.031],[-46.215,-1.1],[-46.045,-1.103],[-45.972,-1.187],[-45.779,-1.251],[-45.645,-1.348],[-45.557,-1.331],[-45.459,-1.356],[-45.353,-1.567],[-45.329,-1.717],[-45.282,-1.697],[-45.182,-1.507],[-45.076,-1.466],[-44.79,-1.725],[-44.721,-1.733],[-44.779,-1.799],[-44.651,-1.746],[-44.547,-1.946],[-44.538,-2.053],[-44.659,-2.228],[-44.756,-2.266],[-44.662,-2.373],[-44.579,-2.23],[-44.435,-2.168],[-44.382,-2.366],[-44.52,-2.405],[-44.521,-2.481],[-44.589,-2.573],[-44.723,-3.205],[-44.438,-2.944],[-44.308,-2.535],[-44.229,-2.471],[-44.106,-2.493],[-44.113,-2.599],[-44.225,-2.755],[-44.193,-2.81],[-43.933,-2.583],[-43.864,-2.595],[-43.729,-2.518],[-43.455,-2.502],[-43.435,-2.414],[-43.38,-2.376],[-42.937,-2.465],[-42.676,-2.59],[-42.594,-2.661],[-42.25,-2.792],[-42.0,-2.806],[-41.876,-2.747],[-41.722,-2.809],[-41.64,-2.879],[-41.48,-2.917],[-41.318,-2.936],[-41.195,-2.886],[-40.876,-2.87],[-40.475,-2.796],[-39.965,-2.862],[-39.014,-3.39],[-38.686,-3.654],[-38.476,-3.717],[-38.049,-4.216],[-37.796,-4.404],[-37.626,-4.592],[-37.301,-4.713],[-37.175,-4.912],[-36.955,-4.937],[-36.747,-5.051],[-36.591,-5.098],[-36.162,-5.094],[-35.98,-5.054],[-35.549,-5.129],[-35.393,-5.251],[-35.235,-5.567],[-35.095,-6.185],[-34.988,-6.394],[-34.93,-6.785],[-34.876,-7.003],[-34.834,-7.024],[-34.805,-7.288],[-34.879,-7.747],[-34.835,-7.971],[-34.967,-8.408],[-35.158,-8.931],[-35.341,-9.231],[-35.597,-9.541],[-35.764,-9.703],[-35.83,-9.719],[-35.891,-9.687],[-35.848,-9.772],[-35.885,-9.848],[-36.055,-10.076],[-36.224,-10.225],[-36.398,-10.484],[-36.768,-10.672],[-36.938,-10.82],[-37.093,-11.055],[-37.125,-11.085],[-37.183,-11.068],[-37.181,-11.188],[-37.356,-11.404],[-37.322,-11.215],[-37.359,-11.253],[-37.438,-11.394],[-37.412,-11.497],[-37.469,-11.654],[-37.689,-12.1],[-38.019,-12.591],[-38.24,-12.844],[-38.402,-12.966],[-38.499,-12.957],[-38.525,-12.762],[-38.691,-12.624],[-38.744,-12.749],[-38.852,-12.79],[-38.784,-12.844],[-38.764,-12.907],[-38.833,-13.033],[-38.835,-13.147],[-39.031,-13.365],[-39.089,-13.588],[-39.035,-13.559],[-38.989,-13.615],[-39.041,-13.758],[-39.048,-14.044],[-39.008,-14.101],[-38.967,-14.003],[-38.942,-14.031],[-39.06,-14.655],[-38.996,-15.254],[-38.881,-15.864],[-39.063,-16.504],[-39.203,-17.178],[-39.215,-17.316],[-39.154,-17.704],[-39.278,-17.849],[-39.487,-17.99],[-39.651,-18.252],[-39.74,-18.64],[-39.7,-19.278],[-39.783,-19.572],[-39.845,-19.649],[-40.001,-19.742],[-40.142,-19.968],[-40.203,-20.206],[-40.299,-20.293],[-40.319,-20.426],[-40.396,-20.569],[-40.597,-20.784],[-40.789,-20.906],[-40.829,-21.031],[-40.955,-21.238],[-41.047,-21.506],[-41.0,-21.999],[-41.123,-22.084],[-41.706,-22.31],[-41.98,-22.581],[-41.986,-22.736],[-41.941,-22.788],[-42.042,-22.947],[-42.958,-22.967],[-43.081,-22.903],[-43.101,-22.85],[-43.065,-22.771],[-43.086,-22.723],[-43.154,-22.725],[-43.229,-22.748],[-43.242,-22.795],[-43.194,-22.939],[-43.224,-22.991],[-43.899,-23.101],[-43.974,-23.057],[-43.676,-23.009],[-43.703,-22.966],[-43.866,-22.911],[-44.047,-22.945],[-44.148,-23.011],[-44.368,-23.005],[-44.637,-23.055],[-44.681,-23.107],[-44.674,-23.207],[-44.57,-23.274],[-44.667,-23.335],[-44.952,-23.381],[-45.215,-23.576],[-45.325,-23.6],[-45.423,-23.685],[-45.464,-23.803],[-45.665,-23.765],[-45.972,-23.796],[-46.867,-24.236],[-47.137,-24.493],[-47.877,-24.997],[-47.989,-25.036],[-47.908,-25.068],[-47.929,-25.168],[-48.203,-25.417],[-48.242,-25.403],[-48.186,-25.31],[-48.402,-25.272],[-48.458,-25.311],[-48.428,-25.403],[-48.476,-25.443],[-48.644,-25.437],[-48.732,-25.369],[-48.692,-25.492],[-48.507,-25.521],[-48.43,-25.55],[-48.401,-25.597],[-48.545,-25.816],[-48.666,-25.844],[-48.679,-25.875],[-48.613,-25.875],[-48.576,-25.935],[-48.619,-26.179],[-48.748,-26.269],[-48.652,-26.406],[-48.678,-26.703],[-48.554,-27.196],[-48.596,-27.264],[-48.572,-27.373],[-48.643,-27.558],[-48.606,-27.825],[-48.621,-28.076],[-48.693,-28.31],[-48.797,-28.443],[-48.8,-28.575],[-49.271,-28.871],[-49.5,-29.075],[-49.746,-29.363],[-50.033,-29.801],[-50.3,-30.426],[-50.62,-30.898],[-50.921,-31.258],[-51.152,-31.48],[-51.798,-31.9],[-52.039,-32.115],[-52.069,-32.063],[-52.043,-31.978],[-52.063,-31.83],[-51.995,-31.815],[-51.893,-31.868],[-51.803,-31.797],[-51.681,-31.775],[-51.446,-31.557],[-51.272,-31.477],[-51.174,-31.34],[-51.161,-31.119],[-51.106,-31.081],[-50.98,-31.094],[-50.941,-30.904],[-50.77,-30.813],[-50.689,-30.704],[-50.716,-30.426],[-50.685,-30.413],[-50.615,-30.457],[-50.582,-30.439],[-50.547,-30.317],[-50.564,-30.254],[-50.646,-30.237],[-50.932,-30.374],[-51.025,-30.369],[-51.04,-30.261],[-51.179,-30.211],[-51.25,-30.06],[-51.298,-30.035],[-51.282,-30.244],[-51.157,-30.364],[-51.247,-30.468],[-51.288,-30.591],[-51.283,-30.752],[-51.359,-30.675],[-51.376,-30.847],[-51.459,-30.913],[-51.485,-30.978],[-51.464,-31.053],[-51.506,-31.104],[-51.972,-31.384],[-52.027,-31.599],[-52.12,-31.695],[-52.194,-31.886],[-52.167,-32.088],[-52.127,-32.168],[-52.342,-32.44],[-52.508,-32.875],[-52.652,-33.138],[-52.921,-33.402],[-53.371,-33.742],[-53.531,-33.655],[-53.531,-33.171],[-53.483,-33.069],[-53.126,-32.737],[-53.231,-32.625],[-53.363,-32.581],[-53.602,-32.403],[-53.762,-32.057],[-53.921,-31.952],[-54.221,-31.855],[-54.37,-31.745],[-54.588,-31.485],[-54.896,-31.391],[-55.036,-31.279],[-55.091,-31.314],[-55.174,-31.28],[-55.255,-31.226],[-55.366,-31.046],[-55.603,-30.851],[-55.808,-31.037],[-56.005,-31.079],[-55.999,-30.837],[-56.045,-30.778],[-56.176,-30.628],[-56.833,-30.107],[-57.033,-30.11],[-57.121,-30.144],[-57.214,-30.283],[-57.552,-30.261],[-57.609,-30.188],[-57.405,-30.034],[-57.225,-29.782],[-56.939,-29.595],[-56.672,-29.287],[-56.636,-29.203],[-56.393,-28.997],[-56.226,-28.737],[-56.034,-28.581],[-55.985,-28.489],[-55.904,-28.443],[-55.891,-28.37],[-55.687,-28.382],[-55.692,-28.303],[-55.746,-28.255],[-55.725,-28.204],[-55.477,-28.089],[-55.346,-27.956],[-55.244,-27.899],[-55.102,-27.867],[-55.04,-27.768],[-54.91,-27.709],[-54.829,-27.551],[-54.666,-27.527],[-54.555,-27.454],[-54.327,-27.424],[-54.156,-27.254],[-54.114,-27.275],[-53.838,-27.121],[-53.717,-26.883],[-53.753,-26.749],[-53.671,-26.225],[-53.823,-25.96],[-53.891,-25.669],[-53.955,-25.648],[-54.012,-25.578],[-54.085,-25.572],[-54.155,-25.523],[-54.444,-25.625],[-54.538,-25.576],[-54.616,-25.576],[-54.611,-25.433],[-54.436,-25.121],[-54.454,-25.065],[-54.281,-24.306],[-54.318,-24.128],[-54.242,-24.047],[-54.44,-23.902],[-54.625,-23.812],[-54.983,-23.975],[-55.194,-24.017],[-55.366,-23.991],[-55.416,-23.951],[-55.459,-23.687],[-55.538,-23.581],[-55.518,-23.416],[-55.555,-23.32],[-55.561,-23.154],[-55.651,-22.886],[-55.618,-22.671],[-55.704,-22.592],[-55.747,-22.513],[-55.753,-22.41],[-55.8,-22.354],[-55.849,-22.308],[-56.246,-22.265],[-56.352,-22.179],[-56.395,-22.093],[-56.448,-22.076],[-56.524,-22.103],[-56.633,-22.235],[-56.937,-22.271],[-57.238,-22.195],[-57.331,-22.215],[-57.569,-22.182],[-57.721,-22.099],[-57.88,-22.136],[-57.956,-22.109],[-57.986,-22.046],[-57.933,-21.911],[-57.949,-21.851],[-57.916,-21.699],[-57.946,-21.494],[-57.873,-21.355],[-57.893,-21.302],[-57.827,-21.134],[-57.83,-20.998],[-57.9,-20.873],[-57.915,-20.69],[-57.979,-20.657],[-58.002,-20.465],[-58.125,-20.293],[-58.16,-20.165],[-58.094,-20.151],[-58.021,-20.055],[-57.888,-20.02],[-57.861,-19.98],[-58.131,-19.745],[-57.8,-19.081],[-57.717,-19.044],[-57.731,-18.917],[-57.783,-18.914],[-57.574,-18.279],[-57.496,-18.215],[-57.586,-18.122],[-57.832,-17.512],[-57.991,-17.513],[-58.396,-17.234],[-58.478,-16.701],[-58.35,-16.491],[-58.346,-16.284],[-58.538,-16.328],[-60.176,-16.269],[-60.242,-15.48],[-60.583,-15.098],[-60.273,-15.089],[-60.299,-14.619],[-60.475,-14.185],[-60.405,-14.019],[-60.507,-13.79],[-61.077,-13.49],[-61.512,-13.541],[-61.79,-13.526],[-62.095,-13.242],[-62.118,-13.16],[-62.353,-13.132],[-62.687,-12.994],[-62.765,-12.997],[-63.015,-12.806],[-63.067,-12.669],[-63.117,-12.652],[-63.25,-12.708],[-63.347,-12.68],[-63.689,-12.478],[-63.788,-12.469],[-63.939,-12.53],[-64.421,-12.44],[-64.513,-12.251],[-64.83,-12.03],[-64.993,-11.975],[-65.09,-11.741],[-65.186,-11.75],[-65.175,-11.647],[-65.322,-11.439],[-65.342,-11.315],[-65.39,-11.246],[-65.372,-11.11],[-65.324,-11.025],[-65.334,-10.893],[-65.447,-10.507],[-65.313,-10.253],[-65.299,-10.147],[-65.325,-10.027],[-65.309,-9.873],[-65.396,-9.712],[-65.492,-9.732],[-65.559,-9.797],[-65.637,-9.809],[-65.707,-9.768],[-65.925,-9.785],[-66.575,-9.9],[-66.73,-9.975],[-67.112,-10.269],[-67.417,-10.39],[-67.582,-10.506],[-67.722,-10.683],[-67.835,-10.663],[-68.072,-10.703],[-68.311,-10.975],[-68.623,-11.109],[-68.727,-11.122],[-68.848,-11.011],[-69.229,-10.956],[-69.96,-10.93],[-70.22,-11.048],[-70.342,-11.067],[-70.451,-11.025],[-70.533,-10.947],[-70.642,-11.01],[-70.637,-9.824],[-70.567,-9.705],[-70.592,-9.543],[-70.541,-9.438],[-70.637,-9.478],[-71.238,-9.966],[-71.608,-10.006],[-72.182,-10.004],[-72.173,-9.844],[-72.26,-9.774],[-72.318,-9.557],[-72.379,-9.51],[-72.814,-9.41],[-73.209,-9.411],[-72.97,-9.12],[-72.974,-8.993],[-73.203,-8.719],[-73.302,-8.654],[-73.357,-8.567],[-73.36,-8.479],[-73.549,-8.346],[-73.645,-8.073],[-73.776,-7.936],[-73.715,-7.829],[-73.72,-7.783],[-73.822,-7.739],[-74.002,-7.556],[-73.958,-7.507],[-73.964,-7.379],[-73.72,-7.309],[-73.805,-7.08],[-73.758,-6.906],[-73.5,-6.679],[-73.325,-6.575],[-73.24,-6.564],[-73.137,-6.466],[-73.135,-6.344],[-73.236,-6.098],[-72.98,-5.635],[-72.887,-5.123],[-72.699,-5.067],[-72.353,-4.786],[-71.845,-4.504],[-71.521,-4.47],[-70.974,-4.35],[-70.8,-4.173],[-70.405,-4.15],[-70.239,-4.301],[-70.129,-4.287],[-70.053,-4.333],[-69.972,-4.301],[-69.4,-1.195],[-69.449,-1.092],[-69.449,-0.999],[-69.544,-0.917],[-69.612,-0.763],[-69.592,-0.639],[-69.634,-0.509],[-69.923,-0.317],[-70.071,-0.139],[-70.054,0.579],[-69.807,0.607],[-69.472,0.73],[-69.283,0.627],[-69.153,0.659],[-69.177,0.713],[-69.163,0.864],[-69.312,1.05],[-69.852,1.06],[-69.849,1.709],[-69.543,1.773],[-69.32,1.721],[-68.177,1.72],[-68.256,1.846],[-68.194,1.987],[-68.13,1.956],[-68.033,1.788],[-67.936,1.748],[-67.815,1.79],[-67.556,2.073],[-67.4,2.117],[-67.352,2.086],[-67.119,1.704],[-67.09,1.616],[-67.082,1.185],[-66.876,1.223]]],[[[-49.629,-0.229],[-49.403,-0.215],[-49.314,-0.168],[-49.117,-0.164],[-48.588,-0.232],[-48.393,-0.297],[-48.38,-0.353],[-48.497,-0.665],[-48.567,-0.684],[-48.54,-0.801],[-48.571,-0.893],[-48.705,-1.107],[-48.84,-1.227],[-48.804,-1.327],[-48.834,-1.39],[-48.929,-1.482],[-49.038,-1.514],[-49.087,-1.505],[-49.173,-1.413],[-49.234,-1.6],[-49.345,-1.595],[-49.507,-1.512],[-49.526,-1.63],[-49.588,-1.712],[-49.805,-1.79],[-50.066,-1.704],[-50.109,-1.748],[-50.508,-1.788],[-50.602,-1.698],[-50.76,-1.24],[-50.729,-1.127],[-50.596,-1.147],[-50.577,-1.103],[-50.593,-1.073],[-50.71,-1.078],[-50.783,-1.01],[-50.796,-0.906],[-50.771,-0.645],[-50.72,-0.583],[-50.694,-0.364],[-50.646,-0.273],[-50.462,-0.157],[-50.248,-0.116],[-49.629,-0.229]]],[[[-44.243,-23.074],[-44.098,-23.169],[-44.32,-23.212],[-44.36,-23.172],[-44.243,-23.074]]],[[[-48.498,-26.219],[-48.603,-26.414],[-48.666,-26.29],[-48.54,-26.17],[-48.498,-26.219]]],[[[-45.233,-23.825],[-45.261,-23.941],[-45.303,-23.915],[-45.413,-23.935],[-45.451,-23.896],[-45.302,-23.728],[-45.233,-23.825]]],[[[-44.499,-2.94],[-44.598,-3.038],[-44.569,-2.785],[-44.481,-2.718],[-44.499,-2.94]]],[[[-38.601,-12.993],[-38.783,-13.119],[-38.787,-13.055],[-38.685,-12.975],[-38.668,-12.88],[-38.615,-12.924],[-38.601,-12.993]]],[[[-38.907,-13.401],[-38.938,-13.532],[-38.978,-13.524],[-39.022,-13.446],[-38.98,-13.398],[-38.907,-13.401]]],[[[-44.883,-1.318],[-44.968,-1.391],[-45.021,-1.372],[-44.979,-1.267],[-44.888,-1.277],[-44.883,-1.318]]],[[[-49.738,0.268],[-49.697,0.216],[-49.839,0.007],[-49.917,-0.023],[-50.002,-0.029],[-50.113,0.033],[-50.339,0.043],[-50.345,0.134],[-50.273,0.232],[-50.128,0.227],[-49.879,0.305],[-49.738,0.268]]],[[[-50.299,1.939],[-50.399,1.893],[-50.456,1.91],[-50.509,2.03],[-50.491,2.129],[-50.419,2.161],[-50.342,2.142],[-50.299,1.939]]],[[[-50.653,-0.132],[-50.926,-0.327],[-51.038,-0.226],[-50.995,-0.105],[-50.842,-0.05],[-50.667,-0.058],[-50.653,-0.132]]],[[[-49.444,-0.112],[-49.709,-0.144],[-49.83,-0.094],[-49.712,0.015],[-49.503,0.084],[-49.4,0.057],[-49.372,0.001],[-49.381,-0.055],[-49.444,-0.112]]],[[[-50.426,0.139],[-50.444,-0.008],[-50.624,0.054],[-50.61,0.205],[-50.452,0.327],[-50.425,0.558],[-50.373,0.591],[-50.351,0.582],[-50.332,0.259],[-50.426,0.139]]],[[[-50.153,0.393],[-50.261,0.359],[-50.282,0.517],[-50.251,0.585],[-50.059,0.638],[-50.04,0.523],[-50.153,0.393]]],[[[-51.638,-1.342],[-51.938,-1.453],[-51.802,-1.203],[-51.68,-1.086],[-51.678,-0.855],[-51.546,-0.65],[-51.424,-0.566],[-51.254,-0.541],[-51.161,-0.667],[-51.276,-1.022],[-51.31,-1.024],[-51.465,-1.211],[-51.638,-1.342]]],[[[-48.486,-27.767],[-48.555,-27.812],[-48.542,-27.575],[-48.415,-27.4],[-48.378,-27.451],[-48.497,-27.707],[-48.486,-27.767]]]]}}