{"type":"FeatureCollection","features":[{"type":"Feature","properties":{"nome":"Rio Grande do Sul","uf":"RS"},"geometry":{"type":"Polygon","coordinates":[[[-57.511,-30.277],[-57.612,-30.183],[-57.325,-29.981],[-57.292,-29.815],[-57.113,-29.766],[-57.021,-29.683],[-56.689,-29.33],[-56.617,-29.161],[-56.428,-29.07],[-56.392,-28.952],[-56.301,-28.881],[-56.286,-28.78],[-56.041,-28.609],[-56.012,-28.497],[-55.902,-28.465],[-55.906,-28.378],[-55.842,-28.346],[-55.694,-28.4],[-55.664,-28.327],[-55.773,-28.232],[-55.605,-28.117],[-55.553,-28.146],[-55.506,-28.079],[-55.441,-28.079],[-55.314,-27.915],[-55.03,-27.851],[-55.081,-27.778],[-54.913,-27.737],[-54.898,-27.624],[-54.845,-27.612],[-54.805,-27.526],[-54.69,-27.551],[-54.589,-27.453],[-54.543,-27.487],[-54.448,-27.459],[-54.445,-27.409],[-54.372,-27.454],[-54.348,-27.394],[-54.287,-27.428],[-54.177,-27.243],[-54.092,-27.285],[-53.882,-27.12],[-53.841,-27.168],[-53.677,-27.154],[-53.653,-27.216],[-53.588,-27.175],[-53.502,-27.192],[-53.486,-27.114],[-53.446,-27.138],[-53.369,-27.072],[-53.283,-27.106],[-53.29,-27.198],[-53.176,-27.182],[-53.149,-27.133],[-53.088,-27.161],[-53.018,-27.083],[-52.994,-27.222],[-52.945,-27.163],[-52.927,-27.202],[-52.869,-27.161],[-52.699,-27.274],[-52.486,-27.257],[-52.457,-27.216],[-52.383,-27.288],[-52.251,-27.249],[-52.232,-27.319],[-52.179,-27.268],[-51.965,-27.368],[-52.012,-27.394],[-51.877,-27.52],[-51.861,-27.476],[-51.779,-27.524],[-51.779,-27.49],[-51.676,-27.476],[-51.563,-27.524],[-51.551,-27.571],[-51.466,-27.562],[-51.388,-27.655],[-51.347,-27.627],[-51.227,-27.768],[-51.08,-27.821],[-50.886,-28.025],[-50.867,-28.127],[-50.792,-28.134],[-50.621,-28.374],[-50.162,-28.484],[-50.134,-28.443],[-50.038,-28.48],[-49.873,-28.45],[-49.817,-28.496],[-49.757,-28.47],[-49.707,-28.531],[-49.704,-28.609],[-49.78,-28.61],[-49.92,-28.717],[-50.003,-29.098],[-50.07,-29.093],[-50.162,-29.19],[-50.168,-29.284],[-50.046,-29.354],[-50.094,-29.252],[-49.955,-29.194],[-49.714,-29.324],[-50.045,-29.815],[-50.316,-30.462],[-50.6,-30.881],[-51.152,-31.482],[-51.563,-31.777],[-51.864,-31.932],[-52.077,-32.167],[-52.057,-31.988],[-52.012,-31.951],[-52.087,-31.828],[-51.836,-31.855],[-51.834,-31.8],[-51.666,-31.77],[-51.499,-31.575],[-51.448,-31.613],[-51.423,-31.485],[-51.378,-31.527],[-51.245,-31.464],[-51.159,-31.286],[-51.162,-31.078],[-51.014,-31.063],[-50.976,-31.131],[-50.936,-31.088],[-50.988,-31.046],[-50.978,-30.893],[-50.76,-30.815],[-50.693,-30.726],[-50.726,-30.363],[-50.645,-30.392],[-50.608,-30.485],[-50.565,-30.45],[-50.54,-30.268],[-50.615,-30.186],[-50.676,-30.218],[-50.672,-30.289],[-50.913,-30.317],[-50.936,-30.432],[-51.034,-30.376],[-51.023,-30.264],[-51.233,-30.19],[-51.238,-30.04],[-51.284,-30.007],[-51.327,-30.225],[-51.282,-30.221],[-51.292,-30.272],[-51.238,-30.313],[-51.204,-30.285],[-51.188,-30.36],[-51.091,-30.352],[-51.25,-30.462],[-51.27,-30.782],[-51.314,-30.773],[-51.322,-30.642],[-51.377,-30.642],[-51.362,-30.879],[-51.455,-30.889],[-51.486,-30.967],[-51.443,-31.081],[-51.624,-31.135],[-51.638,-31.257],[-51.964,-31.332],[-52.008,-31.646],[-52.083,-31.559],[-52.063,-31.665],[-52.219,-31.741],[-52.248,-31.862],[-52.134,-31.931],[-52.238,-31.966],[-52.259,-32.054],[-52.214,-32.086],[-52.081,-32.032],[-52.169,-32.101],[-52.087,-32.067],[-52.091,-32.166],[-52.253,-32.282],[-52.645,-33.137],[-52.819,-33.323],[-53.379,-33.741],[-53.54,-33.649],[-53.537,-33.171],[-53.483,-33.067],[-53.327,-32.974],[-53.299,-32.889],[-53.111,-32.722],[-53.561,-32.45],[-53.644,-32.356],[-53.757,-32.055],[-54.05,-31.887],[-54.146,-31.91],[-54.274,-31.823],[-54.464,-31.672],[-54.495,-31.566],[-54.605,-31.46],[-54.85,-31.425],[-55.029,-31.269],[-55.087,-31.327],[-55.244,-31.245],[-55.369,-31.037],[-55.592,-30.848],[-55.855,-31.075],[-56.011,-31.082],[-56.011,-30.798],[-56.215,-30.582],[-56.831,-30.102],[-57.077,-30.106],[-57.213,-30.287],[-57.511,-30.277]]]}},{"type":"Feature","properties":{"nome":"Roraima","uf":"RR"},"geometry":{"type":"Polygon","coordinates":[[[-60.213,5.267],[-60.132,5.243],[-59.983,5.086],[-60.032,4.725],[-60.16,4.528],[-59.81,4.466],[-59.687,4.381],[-59.738,4.203],[-59.646,4.134],[-59.663,4.08],[-59.596,3.971],[-59.528,3.94],[-59.686,3.69],[-59.863,3.582],[-59.822,3.357],[-59.969,3.043],[-59.996,2.675],[-59.903,2.36],[-59.742,2.264],[-59.764,1.883],[-59.646,1.84],[-59.681,1.757],[-59.531,1.703],[-59.26,1.387],[-58.972,1.312],[-58.871,0.225],[-60.048,0.212],[-60.223,-0.054],[-60.386,-0.464],[-60.314,-0.688],[-60.477,-0.746],[-60.524,-0.834],[-60.737,-0.85],[-60.931,-0.555],[-61.217,-0.495],[-61.532,-0.729],[-61.622,-1.285],[-61.602,-1.418],[-61.761,-1.359],[-61.853,-1.387],[-62.028,-1.144],[-62.198,-1.051],[-62.506,-0.773],[-62.496,-0.695],[-62.387,-0.72],[-62.304,-0.61],[-62.382,-0.31],[-62.586,-0.011],[-62.526,0.095],[-62.568,0.247],[-62.481,0.52],[-62.545,0.712],[-62.446,0.805],[-62.615,1.4],[-62.787,1.603],[-62.714,1.727],[-62.699,1.936],[-62.848,2.019],[-63.031,2.032],[-63.148,2.178],[-63.334,2.182],[-63.387,2.236],[-63.365,2.413],[-64.048,2.471],[-63.998,2.715],[-64.223,3.124],[-64.246,3.419],[-64.203,3.595],[-64.643,3.973],[-64.813,4.253],[-64.7,4.264],[-64.59,4.119],[-64.365,4.152],[-64.173,4.123],[-64.038,3.883],[-63.875,3.95],[-63.672,3.946],[-63.511,3.855],[-63.425,3.968],[-63.352,3.959],[-62.997,3.599],[-62.889,3.561],[-62.75,3.66],[-62.766,4.021],[-62.561,4.038],[-62.537,4.125],[-62.428,4.183],[-62.154,4.09],[-62.035,4.16],[-61.888,4.15],[-61.756,4.246],[-61.552,4.255],[-61.502,4.402],[-61.293,4.448],[-61.316,4.521],[-61.169,4.49],[-60.977,4.535],[-60.896,4.709],[-60.718,4.784],[-60.592,4.95],[-60.664,5.17],[-60.74,5.202],[-60.449,5.174],[-60.213,5.267]]]}},{"type":"Feature","properties":{"nome":"Pará","uf":"PA"},"geometry":{"type":"MultiPolygon","coordinates":[[[[-57.104,2.021],[-57.037,1.932],[-56.878,1.886],[-56.482,1.942],[-56.02,1.834],[-55.922,1.886],[-55.918,2.05],[-56.073,2.242],[-56.147,2.256],[-56.104,2.349],[-56.013,2.399],[-55.983,2.526],[-55.724,2.397],[-55.4,2.43],[-55.321,2.518],[-55.252,2.498],[-55.138,2.562],[-55.121,2.525],[-54.959,2.609],[-54.979,2.543],[-54.88,2.447],[-54.775,2.457],[-54.735,2.415],[-54.716,2.266],[-54.784,2.168],[-54.753,2.074],[-54.798,2.02],[-54.735,1.772],[-54.362,1.762],[-54.105,1.611],[-54.077,1.505],[-53.996,1.522],[-53.856,1.385],[-53.666,1.428],[-53.656,1.365],[-53.552,1.363],[-53.543,1.244],[-53.434,1.256],[-53.407,1.188],[-53.466,1.13],[-53.416,0.942],[-53.282,0.79],[-53.116,0.737],[-53.13,0.399],[-53.042,0.247],[-53.012,0.041],[-52.915,-0.192],[-52.814,-0.18],[-52.627,-0.397],[-52.632,-0.557],[-52.524,-0.659],[-52.517,-0.876],[-52.381,-0.887],[-52.367,-1.061],[-52.266,-1.136],[-52.124,-1.154],[-52.069,-1.219],[-51.98,-1.14],[-51.909,-1.156],[-51.921,-1.326],[-51.995,-1.396],[-52.238,-1.346],[-52.697,-1.552],[-52.708,-1.6],[-52.279,-1.518],[-52.231,-1.603],[-52.26,-1.695],[-52.204,-1.69],[-52.142,-1.623],[-51.959,-1.593],[-51.67,-1.402],[-51.462,-1.329],[-51.4,-1.251],[-51.283,-1.231],[-51.003,-1.014],[-50.997,-0.922],[-50.936,-0.957],[-50.943,-0.909],[-50.84,-0.913],[-50.827,-1.045],[-50.956,-1.129],[-50.82,-1.232],[-50.819,-1.436],[-50.68,-1.629],[-50.655,-1.738],[-50.737,-1.738],[-50.717,-1.822],[-50.788,-1.897],[-50.88,-1.852],[-50.844,-1.955],[-50.702,-1.909],[-50.66,-1.803],[-50.611,-1.814],[-50.547,-1.907],[-50.467,-1.928],[-50.484,-1.978],[-50.443,-1.936],[-50.416,-2.073],[-50.313,-1.909],[-50.162,-1.916],[-50.11,-1.849],[-49.977,-1.826],[-49.869,-1.889],[-49.888,-2.087],[-49.853,-2.046],[-49.812,-2.108],[-49.847,-1.902],[-49.832,-1.95],[-49.81,-1.901],[-49.676,-1.909],[-49.593,-2.012],[-49.655,-1.895],[-49.598,-1.843],[-49.537,-1.861],[-49.485,-1.764],[-49.463,-1.806],[-49.422,-1.779],[-49.451,-1.825],[-49.454,-1.856],[-49.435,-1.88],[-49.37,-1.905],[-49.381,-1.991],[-49.549,-2.403],[-49.546,-2.517],[-49.664,-2.678],[-49.527,-2.628],[-49.232,-1.948],[-48.966,-1.6],[-48.856,-1.559],[-49.033,-1.847],[-48.929,-1.788],[-48.657,-1.383],[-48.535,-1.581],[-48.428,-1.662],[-48.483,-1.511],[-48.325,-1.47],[-48.497,-1.461],[-48.483,-1.281],[-48.436,-1.219],[-48.425,-1.297],[-48.335,-1.314],[-48.305,-1.188],[-48.25,-1.189],[-48.278,-1.129],[-48.223,-1.114],[-48.274,-1.114],[-48.292,-1.044],[-48.187,-1.019],[-48.14,-0.901],[-48.154,-0.782],[-48.038,-0.662],[-47.962,-0.782],[-47.866,-0.674],[-47.802,-0.69],[-47.809,-0.565],[-47.77,-0.637],[-47.725,-0.644],[-47.729,-0.757],[-47.611,-0.694],[-47.585,-0.578],[-47.497,-0.765],[-47.409,-0.771],[-47.393,-0.813],[-47.393,-0.747],[-47.448,-0.696],[-47.469,-0.731],[-47.462,-0.593],[-47.4,-0.593],[-47.414,-0.614],[-47.415,-0.661],[-47.407,-0.682],[-47.294,-0.593],[-47.256,-0.676],[-47.243,-0.62],[-47.198,-0.652],[-47.236,-0.716],[-47.161,-0.682],[-47.194,-0.761],[-47.14,-0.799],[-47.078,-0.666],[-47.057,-0.867],[-46.969,-0.696],[-46.922,-0.835],[-46.963,-0.865],[-46.947,-0.901],[-46.819,-0.712],[-46.783,-0.901],[-46.756,-0.819],[-46.715,-0.878],[-46.749,-0.943],[-46.698,-0.881],[-46.689,-0.826],[-46.633,-0.863],[-46.656,-0.802],[-46.599,-0.867],[-46.619,-0.935],[-46.667,-0.922],[-46.737,-0.984],[-46.749,-1.019],[-46.428,-0.869],[-46.48,-0.919],[-46.475,-1.045],[-46.365,-1.008],[-46.357,-1.075],[-46.323,-1.02],[-46.325,-1.107],[-46.297,-1.032],[-46.248,-1.094],[-46.283,-1.029],[-46.25,-0.931],[-46.172,-0.921],[-46.262,-1.183],[-46.139,-1.114],[-46.146,-1.176],[-46.102,-1.073],[-46.065,-1.148],[-46.166,-1.302],[-46.125,-1.346],[-46.201,-1.484],[-46.201,-1.679],[-46.317,-1.741],[-46.304,-1.803],[-46.215,-1.807],[-46.224,-1.973],[-46.3,-2.177],[-46.367,-2.248],[-46.427,-2.245],[-46.431,-2.527],[-46.659,-2.716],[-46.571,-2.851],[-46.646,-2.892],[-46.637,-2.997],[-46.701,-3.149],[-46.824,-3.328],[-46.945,-3.398],[-46.968,-3.526],[-47.03,-3.569],[-47.079,-3.877],[-47.311,-4.067],[-47.365,-4.254],[-47.581,-4.547],[-47.661,-4.608],[-47.801,-4.596],[-48.743,-5.353],[-48.556,-5.413],[-48.377,-5.394],[-48.297,-5.517],[-48.209,-5.539],[-48.142,-5.646],[-48.297,-5.749],[-48.228,-5.935],[-48.333,-5.976],[-48.284,-6.098],[-48.425,-6.157],[-48.38,-6.36],[-48.501,-6.351],[-48.606,-6.435],[-48.668,-6.649],[-49.011,-6.781],[-49.216,-6.925],[-49.189,-7.247],[-49.39,-7.547],[-49.348,-7.679],[-49.163,-7.804],[-49.305,-8.368],[-49.381,-8.437],[-49.565,-8.811],[-49.755,-8.923],[-50.054,-9.319],[-50.15,-9.7],[-50.236,-9.844],[-56.467,-9.475],[-56.678,-9.377],[-56.783,-9.393],[-56.837,-9.273],[-57.045,-9.23],[-57.093,-9.058],[-57.591,-8.745],[-57.68,-8.446],[-57.644,-8.216],[-57.788,-8.036],[-57.98,-7.53],[-58.17,-7.3],[-58.191,-7.153],[-58.421,-6.913],[-58.471,-6.723],[-58.294,-6.497],[-56.39,-2.391],[-56.399,-2.304],[-56.312,-2.236],[-56.477,-2.256],[-56.499,-2.162],[-56.635,-2.222],[-56.695,-2.204],[-56.757,-2.167],[-56.753,-2.036],[-56.992,-1.945],[-57.088,-1.812],[-57.667,-1.584],[-58.317,-1.118],[-58.405,-1.026],[-58.448,-0.848],[-58.628,-0.765],[-58.738,-0.652],[-58.73,-0.447],[-58.861,-0.322],[-58.972,1.312],[-58.834,1.186],[-58.698,1.281],[-58.519,1.267],[-58.481,1.334],[-58.514,1.439],[-58.386,1.49],[-58.32,1.601],[-58.149,1.519],[-58.027,1.517],[-57.985,1.658],[-57.561,1.709],[-57.341,1.969],[-57.238,1.949],[-57.104,2.021]]],[[[-49.288,-1.758],[-49.367,-1.895],[-49.442,-1.868],[-49.352,-1.722],[-49.288,-1.758]]],[[[-48.339,-1.067],[-48.297,-1.129],[-48.334,-1.205],[-48.462,-1.164],[-48.421,-1.08],[-48.339,-1.067]]],[[[-48.195,-0.819],[-48.156,-0.866],[-48.202,-1.011],[-48.307,-1.021],[-48.313,-0.953],[-48.195,-0.819]]],[[[-47.949,-0.641],[-47.887,-0.669],[-47.962,-0.731],[-47.983,-0.676],[-47.949,-0.641]]],[[[-50.841,-0.559],[-50.843,-0.716],[-51.1,-0.826],[-51.066,-0.676],[-50.861,-0.566],[-50.874,-0.614],[-50.841,-0.559]]],[[[-47.661,-0.579],[-47.643,-0.693],[-47.702,-0.71],[-47.716,-0.637],[-47.761,-0.576],[-47.735,-0.542],[-47.661,-0.579]]],[[[-51.308,-0.519],[-51.15,-0.659],[-51.276,-1.025],[-51.331,-1.01],[-51.435,-1.187],[-51.741,-1.42],[-51.93,-1.471],[-51.954,-1.422],[-51.884,-1.256],[-51.684,-1.097],[-51.676,-0.847],[-51.534,-0.635],[-51.347,-0.532],[-51.382,-0.655],[-51.354,-0.58],[-51.3,-0.593],[-51.308,-0.519]]],[[[-51.264,-0.219],[-51.12,-0.145],[-51.167,-0.306],[-51.405,-0.46],[-51.264,-0.219]]],[[[-48.37,-0.361],[-48.497,-0.744],[-48.572,-0.682],[-48.528,-0.873],[-48.665,-1.001],[-48.629,-1.01],[-48.643,-1.084],[-48.819,-1.203],[-48.921,-1.142],[-48.842,-1.213],[-48.867,-1.251],[-48.796,-1.268],[-48.833,-1.416],[-48.942,-1.296],[-48.99,-1.292],[-48.946,-1.309],[-48.99,-1.374],[-48.945,-1.346],[-48.839,-1.45],[-49.066,-1.532],[-49.198,-1.388],[-49.182,-1.566],[-49.23,-1.573],[-49.168,-1.587],[-49.223,-1.621],[-49.353,-1.573],[-49.387,-1.484],[-49.415,-1.542],[-49.358,-1.638],[-49.443,-1.635],[-49.497,-1.498],[-49.531,-1.498],[-49.504,-1.587],[-49.559,-1.724],[-49.688,-1.769],[-49.744,-1.58],[-49.73,-1.753],[-49.776,-1.807],[-50.002,-1.746],[-50.028,-1.655],[-50.155,-1.779],[-50.225,-1.739],[-50.238,-1.621],[-50.279,-1.597],[-50.25,-1.563],[-50.258,-1.484],[-50.292,-1.597],[-50.243,-1.642],[-50.265,-1.745],[-50.307,-1.655],[-50.285,-1.755],[-50.367,-1.772],[-50.297,-1.803],[-50.405,-1.831],[-50.604,-1.772],[-50.588,-1.685],[-50.803,-1.435],[-50.793,-1.086],[-50.56,-1.183],[-50.617,-1.12],[-50.477,-1.039],[-50.664,-1.095],[-50.756,-1.082],[-50.793,-1.019],[-50.778,-0.819],[-50.737,-0.826],[-50.787,-0.763],[-50.737,-0.552],[-50.684,-0.64],[-50.548,-0.678],[-50.683,-0.624],[-50.724,-0.48],[-50.696,-0.36],[-50.583,-0.192],[-50.411,-0.164],[-50.368,-0.106],[-49.653,-0.241],[-49.387,-0.258],[-49.387,-0.185],[-49.206,-0.14],[-48.98,-0.186],[-48.894,-0.153],[-48.892,-0.216],[-48.427,-0.26],[-48.369,-0.298],[-48.37,-0.361]]],[[[-50.923,-0.33],[-51.039,-0.2],[-50.947,-0.012],[-50.766,0.046],[-50.655,-0.024],[-50.629,-0.104],[-50.676,-0.155],[-50.923,-0.33]]],[[[-49.832,-0.103],[-49.74,-0.0],[-49.497,0.086],[-49.348,-0.01],[-49.463,-0.128],[-49.716,-0.148],[-49.832,-0.103]]],[[[-50.56,-0.004],[-50.649,0.15],[-50.611,0.183],[-50.49,0.159],[-50.446,0.126],[-50.438,-0.0],[-50.56,-0.004]]],[[[-50.091,0.306],[-50.166,0.262],[-50.22,0.246],[-50.113,0.338],[-50.091,0.306]]],[[[-50.037,0.3],[-49.86,0.301],[-49.65,0.386],[-49.53,0.354],[-49.529,0.301],[-49.692,0.205],[-49.867,-0.011],[-50.005,-0.053],[-50.097,0.031],[-50.298,0.012],[-50.345,0.047],[-50.378,0.208],[-50.107,0.222],[-50.037,0.3]]],[[[-50.317,0.309],[-50.419,0.168],[-50.517,0.209],[-50.408,0.421],[-50.431,0.548],[-50.367,0.62],[-50.317,0.309]]],[[[-50.312,0.414],[-50.258,0.585],[-50.12,0.572],[-50.134,0.612],[-50.066,0.647],[-50.043,0.51],[-50.25,0.361],[-50.312,0.414]]],[[[-49.525,-1.673],[-49.424,-1.697],[-49.509,-1.745],[-49.525,-1.673]]]]}},{"type":"Feature","properties":{"nome":"Acre","uf":"AC"},"geometry":{"type":"Polygon","coordinates":[[[-68.805,-10.995],[-69.956,-10.919],[-70.289,-11.065],[-70.437,-11.037],[-70.534,-10.938],[-70.641,-11.011],[-70.638,-9.852],[-70.542,-9.708],[-70.624,-9.566],[-70.565,-9.565],[-70.525,-9.431],[-70.606,-9.449],[-70.997,-9.804],[-71.3,-9.993],[-72.196,-10.006],[-72.163,-9.877],[-72.265,-9.762],[-72.313,-9.533],[-72.813,-9.411],[-73.215,-9.409],[-72.972,-9.134],[-72.97,-9.002],[-73.175,-8.721],[-73.351,-8.598],[-73.356,-8.48],[-73.541,-8.359],[-73.668,-8.014],[-73.785,-7.94],[-73.795,-7.874],[-73.714,-7.866],[-73.712,-7.788],[-74.018,-7.544],[-73.944,-7.449],[-73.983,-7.356],[-73.902,-7.373],[-73.713,-7.305],[-73.807,-7.118],[-72.664,-7.592],[-70.371,-8.157],[-66.649,-9.916],[-67.064,-10.257],[-67.185,-10.327],[-67.324,-10.319],[-67.343,-10.372],[-67.585,-10.502],[-67.722,-10.705],[-68.044,-10.667],[-68.293,-10.979],[-68.616,-11.112],[-68.776,-11.141],[-68.758,-11.012],[-68.805,-10.995]]]}},{"type":"Feature","properties":{"nome":"Amapá","uf":"AP"},"geometry":{"type":"MultiPolygon","coordinates":[[[[-54.775,2.457],[-54.703,2.446],[-54.704,2.325],[-54.588,2.324],[-54.477,2.214],[-54.189,2.161],[-54.135,2.111],[-53.765,2.369],[-53.742,2.309],[-53.532,2.247],[-53.344,2.35],[-53.234,2.251],[-53.269,2.196],[-52.917,2.196],[-52.59,2.505],[-52.576,2.634],[-52.409,2.897],[-52.355,3.152],[-52.228,3.26],[-51.783,3.981],[-51.632,4.068],[-51.585,4.234],[-51.437,3.93],[-51.547,4.255],[-51.56,4.369],[-51.516,4.441],[-51.389,4.359],[-51.187,4.079],[-51.176,3.648],[-51.136,3.868],[-51.116,3.906],[-51.08,3.882],[-51.093,3.376],[-51.017,3.036],[-50.852,2.666],[-50.839,2.497],[-50.763,2.444],[-50.679,2.172],[-50.737,2.134],[-50.793,2.162],[-50.78,2.071],[-50.752,2.045],[-50.702,2.13],[-50.62,2.105],[-50.467,1.815],[-50.165,1.816],[-49.951,1.721],[-49.901,1.612],[-49.883,1.308],[-49.975,1.245],[-50.15,1.221],[-50.12,1.185],[-49.922,1.218],[-49.89,1.165],[-49.979,1.072],[-50.032,1.106],[-50.061,1.019],[-50.453,0.664],[-50.609,0.374],[-50.791,0.17],[-50.98,0.12],[-51.081,-0.033],[-51.327,-0.08],[-51.251,-0.127],[-51.371,-0.343],[-51.486,-0.517],[-51.58,-0.525],[-51.553,-0.546],[-51.588,-0.559],[-51.532,-0.552],[-51.697,-0.747],[-51.719,-1.033],[-51.834,-1.135],[-51.98,-1.14],[-52.069,-1.219],[-52.116,-1.158],[-52.246,-1.143],[-52.363,-1.067],[-52.381,-0.887],[-52.517,-0.876],[-52.527,-0.648],[-52.632,-0.557],[-52.631,-0.39],[-52.814,-0.18],[-52.915,-0.192],[-53.042,0.247],[-53.128,0.387],[-53.116,0.737],[-53.282,0.79],[-53.416,0.942],[-53.466,1.13],[-53.407,1.188],[-53.434,1.256],[-53.543,1.244],[-53.552,1.363],[-53.656,1.365],[-53.666,1.428],[-53.856,1.385],[-53.996,1.522],[-54.077,1.505],[-54.105,1.611],[-54.362,1.762],[-54.735,1.772],[-54.798,2.02],[-54.753,2.074],[-54.784,2.168],[-54.716,2.266],[-54.775,2.457]]],[[[-50.103,0.756],[-50.283,0.769],[-50.225,0.859],[-50.112,0.918],[-50.016,0.892],[-50.103,0.756]]],[[[-50.063,0.923],[-50.1,0.959],[-49.926,1.07],[-49.964,0.974],[-50.063,0.923]]],[[[-50.504,2.096],[-50.4,2.115],[-50.314,1.968],[-50.419,1.863],[-50.524,2.001],[-50.504,2.096]]],[[[-50.544,2.146],[-50.463,2.187],[-50.415,2.127],[-50.498,2.107],[-50.544,2.146]]]]}},{"type":"Feature","properties":{"nome":"Mato Grosso do Sul","uf":"MS"},"geometry":{"type":"Polygon","coordinates":[[[-58.159,-20.165],[-57.86,-19.98],[-58.125,-19.73],[-57.789,-19.059],[-57.716,-19.045],[-57.732,-18.922],[-57.782,-18.91],[-57.567,-18.256],[-57.467,-18.24],[-57.551,-18.184],[-57.73,-17.846],[-57.697,-17.825],[-57.724,-17.737],[-57.634,-17.741],[-57.602,-17.818],[-57.474,-17.892],[-57.471,-17.947],[-57.418,-17.864],[-57.083,-17.763],[-56.756,-17.318],[-56.417,-17.316],[-56.119,-17.187],[-55.788,-17.352],[-55.632,-17.381],[-55.536,-17.501],[-55.181,-17.686],[-54.915,-17.655],[-54.752,-17.538],[-54.607,-17.505],[-54.421,-17.581],[-54.384,-17.676],[-54.128,-17.624],[-53.822,-17.306],[-53.689,-17.25],[-53.754,-17.651],[-53.875,-17.705],[-53.977,-17.933],[-53.728,-18.008],[-53.054,-18.017],[-53.033,-18.357],[-52.988,-18.388],[-52.894,-18.348],[-52.769,-18.412],[-52.896,-18.665],[-52.76,-18.71],[-52.483,-18.707],[-52.356,-18.81],[-52.231,-18.821],[-51.842,-19.048],[-51.113,-19.293],[-50.937,-19.549],[-50.989,-19.583],[-51.026,-19.725],[-50.994,-20.102],[-51.029,-20.189],[-51.137,-20.297],[-51.326,-20.362],[-51.58,-20.596],[-51.632,-20.877],[-51.871,-21.144],[-51.867,-21.343],[-51.981,-21.479],[-52.104,-21.523],[-52.044,-21.666],[-52.304,-21.925],[-52.365,-22.092],[-52.462,-22.183],[-52.967,-22.459],[-53.168,-22.702],[-53.585,-22.903],[-53.725,-23.296],[-53.968,-23.444],[-54.077,-23.949],[-54.246,-24.05],[-54.639,-23.804],[-54.944,-23.969],[-55.165,-24.017],[-55.421,-23.955],[-55.445,-23.735],[-55.531,-23.603],[-55.535,-23.229],[-55.638,-23.001],[-55.624,-22.639],[-55.724,-22.57],[-55.76,-22.392],[-55.861,-22.29],[-56.214,-22.275],[-56.408,-22.076],[-56.511,-22.091],[-56.649,-22.263],[-56.715,-22.215],[-56.856,-22.293],[-56.904,-22.237],[-57.214,-22.188],[-57.385,-22.213],[-57.614,-22.177],[-57.664,-22.101],[-57.844,-22.144],[-57.986,-22.074],[-57.896,-21.688],[-57.949,-21.508],[-57.856,-21.331],[-57.904,-21.275],[-57.834,-21.174],[-57.818,-20.954],[-57.915,-20.906],[-57.86,-20.832],[-57.94,-20.794],[-57.858,-20.74],[-57.918,-20.67],[-57.981,-20.693],[-57.989,-20.433],[-58.083,-20.376],[-58.095,-20.272],[-58.163,-20.243],[-58.119,-20.214],[-58.159,-20.165]]]}},{"type":"Feature","properties":{"nome":"Paraná","uf":"PR"},"geometry":{"type":"MultiPolygon","coordinates":[[[[-54.358,-24.731],[-54.335,-24.497],[-54.262,-24.359],[-54.325,-24.118],[-54.077,-23.949],[-53.968,-23.444],[-53.725,-23.296],[-53.585,-22.903],[-52.947,-22.571],[-52.276,-22.597],[-52.217,-22.644],[-52.14,-22.542],[-52.067,-22.522],[-51.695,-22.663],[-51.347,-22.652],[-50.88,-22.822],[-50.765,-22.954],[-50.385,-22.912],[-50.208,-22.949],[-49.978,-22.904],[-49.894,-23.049],[-49.734,-23.099],[-49.638,-23.259],[-49.614,-23.393],[-49.654,-23.512],[-49.553,-23.712],[-49.596,-23.882],[-49.353,-24.113],[-49.336,-24.225],[-49.222,-24.35],[-49.318,-24.542],[-49.296,-24.666],[-49.053,-24.685],[-49.028,-24.634],[-48.781,-24.696],[-48.582,-24.682],[-48.488,-24.746],[-48.546,-24.818],[-48.57,-25.054],[-48.5,-25.083],[-48.421,-24.96],[-48.277,-25.033],[-48.23,-25.014],[-48.179,-25.204],[-48.032,-25.229],[-48.209,-25.458],[-48.25,-25.428],[-48.222,-25.339],[-48.127,-25.28],[-48.25,-25.318],[-48.284,-25.29],[-48.333,-25.358],[-48.325,-25.229],[-48.367,-25.305],[-48.456,-25.248],[-48.428,-25.324],[-48.497,-25.338],[-48.414,-25.41],[-48.473,-25.476],[-48.635,-25.445],[-48.743,-25.352],[-48.684,-25.463],[-48.729,-25.468],[-48.711,-25.496],[-48.62,-25.496],[-48.654,-25.517],[-48.606,-25.544],[-48.524,-25.515],[-48.469,-25.544],[-48.482,-25.58],[-48.361,-25.571],[-48.433,-25.622],[-48.541,-25.845],[-48.579,-25.797],[-48.62,-25.818],[-48.583,-25.855],[-48.769,-25.867],[-48.563,-25.866],[-48.583,-25.981],[-49.115,-25.992],[-49.552,-26.23],[-49.945,-26.015],[-50.294,-26.04],[-50.337,-26.112],[-50.459,-26.026],[-50.588,-26.007],[-50.558,-26.043],[-50.647,-26.07],[-50.738,-26.236],[-50.907,-26.281],[-51.072,-26.235],[-51.213,-26.313],[-51.291,-26.435],[-51.239,-26.607],[-51.416,-26.705],[-51.499,-26.599],[-52.007,-26.582],[-52.2,-26.452],[-52.642,-26.402],[-52.816,-26.337],[-53.112,-26.369],[-53.355,-26.242],[-53.478,-26.292],[-53.662,-26.26],[-53.833,-25.962],[-53.84,-25.791],[-53.91,-25.629],[-53.968,-25.653],[-53.997,-25.575],[-54.083,-25.55],[-54.099,-25.597],[-54.116,-25.495],[-54.215,-25.531],[-54.19,-25.581],[-54.395,-25.581],[-54.447,-25.689],[-54.473,-25.626],[-54.6,-25.575],[-54.598,-25.398],[-54.427,-25.149],[-54.462,-25.037],[-54.358,-24.731]]],[[[-48.34,-25.426],[-48.255,-25.348],[-48.291,-25.489],[-48.34,-25.426]]]]}},{"type":"Feature","properties":{"nome":"Santa Catarina","uf":"SC"},"geometry":{"type":"MultiPolygon","coordinates":[[[[-53.774,-26.714],[-53.724,-26.376],[-53.662,-26.26],[-53.478,-26.292],[-53.355,-26.242],[-53.112,-26.369],[-52.816,-26.337],[-52.642,-26.402],[-52.19,-26.454],[-52.007,-26.582],[-51.499,-26.599],[-51.416,-26.705],[-51.239,-26.607],[-51.291,-26.435],[-51.213,-26.313],[-51.072,-26.235],[-50.907,-26.281],[-50.738,-26.236],[-50.647,-26.07],[-50.558,-26.043],[-50.588,-26.007],[-50.459,-26.026],[-50.337,-26.112],[-50.294,-26.04],[-49.945,-26.015],[-49.552,-26.23],[-49.115,-25.992],[-48.583,-25.981],[-48.583,-26.173],[-48.668,-26.236],[-48.734,-26.225],[-48.789,-26.063],[-48.798,-26.088],[-48.756,-26.204],[-48.757,-26.291],[-48.798,-26.305],[-48.608,-26.437],[-48.683,-26.662],[-48.679,-26.731],[-48.578,-26.777],[-48.629,-26.865],[-48.62,-26.983],[-48.575,-27.016],[-48.607,-27.104],[-48.579,-27.158],[-48.516,-27.121],[-48.476,-27.154],[-48.493,-27.216],[-48.542,-27.182],[-48.62,-27.247],[-48.552,-27.387],[-48.647,-27.48],[-48.579,-27.576],[-48.647,-27.647],[-48.566,-27.86],[-48.636,-28.23],[-48.771,-28.492],[-48.795,-28.371],[-48.865,-28.321],[-48.855,-28.475],[-48.75,-28.511],[-48.815,-28.61],[-48.941,-28.645],[-49.343,-28.924],[-49.714,-29.324],[-49.955,-29.194],[-50.094,-29.252],[-50.034,-29.315],[-50.052,-29.355],[-50.163,-29.296],[-50.165,-29.196],[-50.07,-29.093],[-50.003,-29.098],[-49.92,-28.717],[-49.78,-28.61],[-49.704,-28.609],[-49.757,-28.47],[-50.048,-28.48],[-50.134,-28.443],[-50.162,-28.484],[-50.539,-28.416],[-50.621,-28.374],[-50.792,-28.134],[-50.867,-28.127],[-50.886,-28.025],[-51.08,-27.821],[-51.227,-27.768],[-51.347,-27.627],[-51.388,-27.655],[-51.466,-27.562],[-51.551,-27.571],[-51.563,-27.524],[-51.676,-27.476],[-51.779,-27.49],[-51.779,-27.524],[-51.861,-27.476],[-51.877,-27.52],[-52.012,-27.394],[-51.965,-27.368],[-52.179,-27.268],[-52.232,-27.319],[-52.251,-27.249],[-52.383,-27.288],[-52.457,-27.216],[-52.486,-27.257],[-52.699,-27.274],[-52.869,-27.161],[-52.927,-27.202],[-52.945,-27.163],[-52.994,-27.222],[-53.018,-27.083],[-53.088,-27.161],[-53.149,-27.133],[-53.176,-27.182],[-53.29,-27.198],[-53.283,-27.106],[-53.369,-27.072],[-53.446,-27.138],[-53.486,-27.114],[-53.518,-27.195],[-53.588,-27.175],[-53.653,-27.216],[-53.677,-27.154],[-53.841,-27.168],[-53.713,-26.905],[-53.774,-26.714]]],[[[-48.435,-27.405],[-48.38,-27.436],[-48.407,-27.579],[-48.497,-27.703],[-48.486,-27.774],[-48.564,-27.817],[-48.547,-27.577],[-48.504,-27.556],[-48.538,-27.476],[-48.435,-27.405]]],[[[-48.489,-26.236],[-48.583,-26.421],[-48.703,-26.312],[-48.548,-26.167],[-48.489,-26.236]]]]}},{"type":"Feature","properties":{"nome":"Amazonas","uf":"AM"},"geometry":{"type":"Polygon","coordinates":[[[-67.44,2.14],[-67.341,2.09],[-67.117,1.71],[-67.074,1.541],[-67.086,1.176],[-66.875,1.223],[-66.407,0.802],[-66.285,0.746],[-66.134,0.731],[-65.745,0.974],[-65.596,0.984],[-65.519,0.887],[-65.587,0.739],[-65.543,0.649],[-65.451,0.69],[-65.327,0.91],[-65.203,0.924],[-65.137,1.127],[-65.022,1.14],[-64.839,1.271],[-64.731,1.248],[-64.409,1.508],[-64.365,1.497],[-64.395,1.392],[-64.353,1.366],[-64.093,1.623],[-64.054,1.894],[-63.995,1.958],[-63.783,1.975],[-63.618,2.101],[-63.412,2.149],[-63.387,2.236],[-63.289,2.159],[-63.148,2.178],[-63.031,2.032],[-62.848,2.019],[-62.699,1.936],[-62.714,1.727],[-62.787,1.603],[-62.615,1.4],[-62.448,0.825],[-62.545,0.712],[-62.481,0.52],[-62.568,0.247],[-62.526,0.095],[-62.586,-0.011],[-62.382,-0.31],[-62.304,-0.61],[-62.387,-0.72],[-62.496,-0.695],[-62.503,-0.784],[-62.028,-1.144],[-61.871,-1.379],[-61.761,-1.359],[-61.602,-1.418],[-61.622,-1.285],[-61.532,-0.729],[-61.217,-0.495],[-60.931,-0.555],[-60.737,-0.85],[-60.524,-0.834],[-60.477,-0.746],[-60.321,-0.695],[-60.386,-0.464],[-60.223,-0.054],[-60.048,0.212],[-58.871,0.225],[-58.854,-0.352],[-58.73,-0.447],[-58.738,-0.652],[-58.628,-0.765],[-58.448,-0.848],[-58.39,-1.049],[-57.667,-1.584],[-57.406,-1.709],[-57.255,-1.716],[-57.242,-1.766],[-57.088,-1.812],[-56.992,-1.945],[-56.753,-2.036],[-56.739,-2.181],[-56.635,-2.222],[-56.499,-2.162],[-56.477,-2.256],[-56.312,-2.236],[-56.399,-2.304],[-56.39,-2.391],[-58.294,-6.497],[-58.466,-6.702],[-58.421,-6.913],[-58.217,-7.11],[-58.135,-7.339],[-58.216,-7.432],[-58.224,-7.622],[-58.379,-7.818],[-58.305,-8.105],[-58.437,-8.413],[-58.42,-8.551],[-58.481,-8.705],[-58.545,-8.748],[-61.611,-8.769],[-61.619,-8.711],[-61.717,-8.688],[-61.838,-8.745],[-61.919,-8.873],[-62.124,-8.78],[-62.176,-8.601],[-62.3,-8.581],[-62.381,-8.374],[-62.54,-8.363],[-62.744,-8.049],[-62.904,-8.008],[-63.538,-8.0],[-63.584,-8.159],[-63.736,-8.198],[-63.741,-8.278],[-63.9,-8.318],[-63.989,-8.429],[-63.922,-8.545],[-64.005,-8.685],[-64.134,-8.694],[-64.12,-8.957],[-64.373,-8.936],[-64.597,-9.026],[-64.779,-8.987],[-64.92,-9.109],[-64.907,-9.224],[-65.067,-9.426],[-65.154,-9.406],[-65.211,-9.253],[-65.451,-9.455],[-65.563,-9.414],[-65.753,-9.57],[-65.953,-9.404],[-66.388,-9.401],[-66.394,-9.51],[-66.492,-9.625],[-66.831,-9.838],[-70.371,-8.157],[-72.664,-7.592],[-73.807,-7.118],[-73.759,-6.887],[-73.685,-6.812],[-73.371,-6.584],[-73.199,-6.546],[-73.148,-6.476],[-73.127,-6.391],[-73.235,-6.078],[-72.977,-5.652],[-72.974,-5.466],[-72.897,-5.272],[-72.918,-5.132],[-72.748,-5.055],[-72.645,-5.061],[-72.415,-4.876],[-72.386,-4.794],[-72.251,-4.759],[-71.907,-4.518],[-71.525,-4.485],[-71.477,-4.441],[-71.363,-4.459],[-71.265,-4.375],[-71.214,-4.411],[-71.17,-4.363],[-71.128,-4.402],[-71.005,-4.348],[-70.969,-4.385],[-70.832,-4.179],[-70.694,-4.172],[-70.647,-4.116],[-70.585,-4.195],[-70.55,-4.141],[-70.516,-4.182],[-70.331,-4.143],[-70.317,-4.247],[-70.206,-4.343],[-70.139,-4.26],[-70.037,-4.341],[-69.972,-4.291],[-69.399,-1.183],[-69.443,-1.008],[-69.533,-0.934],[-69.628,-0.733],[-69.584,-0.645],[-69.62,-0.525],[-69.934,-0.314],[-70.068,-0.16],[-70.054,0.588],[-69.619,0.651],[-69.478,0.733],[-69.297,0.618],[-69.137,0.65],[-69.192,0.729],[-69.152,0.868],[-69.289,1.038],[-69.763,1.091],[-69.852,1.059],[-69.856,1.708],[-69.542,1.773],[-69.352,1.72],[-68.163,1.721],[-68.28,1.829],[-68.192,2.015],[-68.032,1.778],[-67.929,1.741],[-67.821,1.784],[-67.593,2.055],[-67.44,2.14]]]}},{"type":"Feature","properties":{"nome":"Rondônia","uf":"RO"},"geometry":{"type":"Polygon","coordinates":[[[-65.45,-10.468],[-65.285,-10.207],[-65.337,-9.967],[-65.299,-9.841],[-65.398,-9.687],[-65.452,-9.681],[-65.584,-9.837],[-65.789,-9.733],[-65.806,-9.784],[-66.087,-9.785],[-66.649,-9.916],[-66.831,-9.838],[-66.492,-9.625],[-66.394,-9.51],[-66.388,-9.401],[-65.953,-9.404],[-65.753,-9.57],[-65.563,-9.414],[-65.451,-9.455],[-65.211,-9.253],[-65.162,-9.396],[-65.078,-9.432],[-64.907,-9.224],[-64.92,-9.109],[-64.779,-8.987],[-64.597,-9.026],[-64.373,-8.936],[-64.12,-8.957],[-64.134,-8.694],[-64.005,-8.685],[-63.922,-8.545],[-63.989,-8.429],[-63.9,-8.318],[-63.741,-8.278],[-63.736,-8.198],[-63.584,-8.159],[-63.538,-8.0],[-62.829,-8.016],[-62.676,-8.114],[-62.54,-8.363],[-62.381,-8.374],[-62.3,-8.581],[-62.176,-8.601],[-62.124,-8.78],[-61.905,-8.873],[-61.838,-8.745],[-61.717,-8.688],[-61.619,-8.711],[-61.611,-8.769],[-61.509,-8.847],[-61.486,-8.914],[-61.558,-9.097],[-61.531,-9.225],[-61.593,-9.242],[-61.611,-9.32],[-61.482,-9.628],[-61.564,-9.727],[-61.519,-9.874],[-61.579,-10.131],[-61.471,-10.435],[-61.503,-10.687],[-61.466,-10.72],[-61.52,-10.79],[-61.521,-10.968],[-60.441,-11.003],[-60.37,-11.109],[-60.289,-11.077],[-60.002,-11.144],[-59.911,-11.384],[-60.101,-11.6],[-60.101,-11.745],[-60.069,-11.894],[-59.983,-11.917],[-59.896,-12.102],[-59.823,-12.408],[-60.042,-12.875],[-60.266,-13.056],[-60.384,-13.42],[-60.726,-13.663],[-60.897,-13.553],[-61.022,-13.535],[-61.047,-13.465],[-61.149,-13.52],[-61.348,-13.494],[-61.503,-13.548],[-61.597,-13.506],[-61.836,-13.541],[-61.872,-13.456],[-62.109,-13.249],[-62.115,-13.15],[-62.424,-13.127],[-62.472,-13.068],[-62.642,-13.03],[-62.687,-12.965],[-62.79,-13.001],[-62.929,-12.846],[-62.988,-12.844],[-63.075,-12.653],[-63.137,-12.634],[-63.318,-12.702],[-63.486,-12.557],[-63.801,-12.455],[-63.921,-12.544],[-64.215,-12.474],[-64.288,-12.497],[-64.49,-12.374],[-64.489,-12.239],[-64.665,-12.181],[-64.69,-12.104],[-64.74,-12.145],[-64.793,-12.033],[-64.997,-11.996],[-65.066,-11.753],[-65.113,-11.691],[-65.151,-11.773],[-65.196,-11.742],[-65.167,-11.616],[-65.223,-11.517],[-65.32,-11.476],[-65.355,-11.382],[-65.326,-11.328],[-65.387,-11.278],[-65.36,-11.219],[-65.395,-11.153],[-65.299,-10.982],[-65.327,-10.85],[-65.405,-10.799],[-65.381,-10.698],[-65.436,-10.626],[-65.45,-10.468]]]}},{"type":"Feature","properties":{"nome":"Mato Grosso","uf":"MT"},"geometry":{"type":"Polygon","coordinates":[[[-58.465,-16.331],[-60.13,-16.273],[-60.18,-16.222],[-60.246,-15.478],[-60.582,-15.099],[-60.27,-15.083],[-60.292,-14.63],[-60.369,-14.543],[-60.344,-14.491],[-60.464,-14.278],[-60.479,-14.163],[-60.387,-13.983],[-60.473,-13.798],[-60.726,-13.663],[-60.384,-13.42],[-60.266,-13.056],[-60.042,-12.875],[-59.823,-12.408],[-59.896,-12.102],[-59.983,-11.917],[-60.069,-11.894],[-60.101,-11.745],[-60.101,-11.6],[-59.911,-11.384],[-60.002,-11.144],[-60.289,-11.077],[-60.37,-11.109],[-60.441,-11.003],[-61.51,-10.989],[-61.471,-10.435],[-61.579,-10.131],[-61.519,-9.874],[-61.564,-9.727],[-61.482,-9.628],[-61.611,-9.32],[-61.593,-9.242],[-61.531,-9.225],[-61.558,-9.097],[-61.484,-8.904],[-61.611,-8.769],[-58.545,-8.748],[-58.481,-8.705],[-58.42,-8.551],[-58.44,-8.422],[-58.305,-8.105],[-58.379,-7.818],[-58.224,-7.622],[-58.216,-7.432],[-58.135,-7.339],[-57.98,-7.53],[-57.788,-8.036],[-57.644,-8.216],[-57.68,-8.446],[-57.591,-8.745],[-57.093,-9.058],[-57.06,-9.219],[-56.837,-9.273],[-56.77,-9.398],[-56.678,-9.377],[-56.467,-9.475],[-50.236,-9.844],[-50.391,-10.136],[-50.406,-10.299],[-50.493,-10.418],[-50.519,-10.558],[-50.599,-10.657],[-50.612,-11.061],[-50.741,-11.471],[-50.65,-11.608],[-50.713,-11.739],[-50.644,-11.89],[-50.683,-12.042],[-50.612,-12.431],[-50.675,-12.615],[-50.599,-12.805],[-50.478,-12.879],[-50.587,-13.074],[-50.6,-13.303],[-50.755,-13.534],[-50.796,-13.676],[-50.866,-13.716],[-50.846,-14.084],[-50.923,-14.118],[-50.96,-14.236],[-50.984,-14.566],[-51.16,-14.963],[-51.275,-15.018],[-51.32,-14.956],[-51.412,-14.995],[-51.649,-15.19],[-51.712,-15.474],[-51.793,-15.539],[-51.774,-15.611],[-51.872,-15.793],[-52.231,-15.899],[-52.334,-16.046],[-52.532,-16.152],[-52.539,-16.233],[-52.675,-16.301],[-52.676,-16.383],[-52.616,-16.426],[-52.712,-16.651],[-53.019,-16.868],[-53.038,-17.038],[-53.203,-17.282],[-53.245,-17.592],[-53.054,-18.017],[-53.728,-18.008],[-53.977,-17.933],[-53.875,-17.705],[-53.754,-17.651],[-53.689,-17.25],[-53.822,-17.306],[-54.128,-17.624],[-54.384,-17.676],[-54.421,-17.581],[-54.607,-17.505],[-54.752,-17.538],[-54.915,-17.655],[-55.181,-17.686],[-55.536,-17.501],[-55.632,-17.381],[-55.788,-17.352],[-56.103,-17.187],[-56.417,-17.316],[-56.756,-17.318],[-57.083,-17.763],[-57.418,-17.864],[-57.472,-17.947],[-57.474,-17.892],[-57.602,-17.818],[-57.634,-17.741],[-57.768,-17.709],[-57.814,-17.52],[-58.01,-17.497],[-58.381,-17.267],[-58.48,-16.684],[-58.343,-16.473],[-58.34,-16.289],[-58.465,-16.331]]]}},{"type":"Feature","properties":{"nome":"Maranhão","uf":"MA"},"geometry":{"type":"MultiPolygon","coordinates":[[[[-46.166,-1.302],[-46.05,-1.163],[-46.032,-1.201],[-45.979,-1.055],[-45.982,-1.142],[-45.948,-1.142],[-46.003,-1.193],[-45.939,-1.246],[-45.867,-1.063],[-45.9,-1.258],[-45.865,-1.231],[-45.863,-1.273],[-45.838,-1.203],[-45.841,-1.28],[-45.811,-1.326],[-45.722,-1.135],[-45.735,-1.251],[-45.689,-1.202],[-45.654,-1.274],[-45.676,-1.366],[-45.622,-1.357],[-45.61,-1.276],[-45.584,-1.326],[-45.544,-1.27],[-45.53,-1.416],[-45.416,-1.288],[-45.481,-1.464],[-45.504,-1.459],[-45.518,-1.465],[-45.543,-1.491],[-45.502,-1.47],[-45.461,-1.546],[-45.451,-1.454],[-45.326,-1.313],[-45.296,-1.416],[-45.392,-1.484],[-45.351,-1.477],[-45.401,-1.56],[-45.34,-1.583],[-45.365,-1.704],[-45.324,-1.745],[-45.221,-1.673],[-45.247,-1.579],[-45.163,-1.483],[-45.079,-1.484],[-45.063,-1.429],[-44.967,-1.546],[-45.02,-1.579],[-45.022,-1.601],[-44.967,-1.594],[-44.954,-1.502],[-44.868,-1.421],[-44.851,-1.484],[-44.912,-1.601],[-44.954,-1.601],[-44.934,-1.655],[-44.885,-1.601],[-44.847,-1.641],[-44.83,-1.635],[-44.837,-1.566],[-44.773,-1.724],[-44.822,-1.759],[-44.774,-1.741],[-44.768,-1.727],[-44.776,-1.704],[-44.708,-1.717],[-44.81,-1.813],[-44.679,-1.811],[-44.653,-1.717],[-44.598,-1.745],[-44.66,-1.84],[-44.526,-1.84],[-44.591,-1.902],[-44.522,-1.895],[-44.49,-1.995],[-44.617,-2.039],[-44.494,-2.046],[-44.645,-2.156],[-44.589,-2.165],[-44.708,-2.238],[-44.694,-2.266],[-44.751,-2.252],[-44.824,-2.279],[-44.666,-2.271],[-44.721,-2.402],[-44.664,-2.357],[-44.663,-2.421],[-44.653,-2.429],[-44.632,-2.272],[-44.462,-2.145],[-44.399,-2.197],[-44.364,-2.334],[-44.395,-2.402],[-44.511,-2.367],[-44.551,-2.391],[-44.57,-2.416],[-44.507,-2.39],[-44.522,-2.5],[-44.656,-2.593],[-44.54,-2.538],[-44.686,-2.917],[-44.694,-2.995],[-44.622,-3.051],[-44.782,-3.197],[-44.761,-3.286],[-44.796,-3.3],[-44.762,-3.306],[-44.743,-3.207],[-44.66,-3.185],[-44.433,-2.95],[-44.353,-2.529],[-44.289,-2.58],[-44.293,-2.481],[-44.073,-2.4],[-44.029,-2.443],[-44.097,-2.457],[-44.056,-2.505],[-44.042,-2.47],[-44.049,-2.553],[-44.124,-2.594],[-44.137,-2.67],[-44.214,-2.669],[-44.338,-2.785],[-44.33,-2.827],[-44.312,-2.779],[-44.296,-2.834],[-44.255,-2.765],[-44.22,-2.793],[-44.187,-2.759],[-44.2,-2.869],[-44.098,-2.749],[-44.083,-2.807],[-44.023,-2.649],[-43.946,-2.629],[-43.923,-2.547],[-43.878,-2.635],[-43.879,-2.571],[-43.746,-2.529],[-43.724,-2.477],[-43.721,-2.56],[-43.658,-2.546],[-43.682,-2.505],[-43.645,-2.477],[-43.666,-2.512],[-43.558,-2.531],[-43.537,-2.436],[-43.453,-2.553],[-43.465,-2.486],[-43.419,-2.485],[-43.46,-2.443],[-43.412,-2.457],[-43.487,-2.395],[-43.408,-2.337],[-42.7,-2.564],[-42.581,-2.672],[-42.487,-2.669],[-42.508,-2.722],[-42.453,-2.752],[-42.264,-2.759],[-42.239,-2.834],[-42.082,-2.8],[-41.944,-2.838],[-41.94,-2.774],[-42.01,-2.727],[-41.821,-2.734],[-41.87,-2.834],[-41.813,-2.955],[-41.95,-3.176],[-42.117,-3.269],[-42.1,-3.303],[-42.217,-3.434],[-42.501,-3.451],[-42.663,-3.672],[-42.725,-3.911],[-42.991,-4.24],[-42.966,-4.373],[-42.898,-4.404],[-42.863,-4.499],[-42.949,-4.659],[-42.952,-4.777],[-42.857,-4.924],[-42.802,-5.181],[-42.849,-5.34],[-43.102,-5.623],[-43.076,-6.055],[-42.85,-6.254],[-42.83,-6.352],[-42.926,-6.686],[-42.997,-6.761],[-43.198,-6.755],[-43.422,-6.844],[-43.675,-6.701],[-43.974,-6.74],[-44.063,-6.829],[-44.108,-6.819],[-44.094,-6.856],[-44.162,-6.887],[-44.297,-7.103],[-44.5,-7.179],[-44.697,-7.391],[-44.816,-7.364],[-45.009,-7.488],[-45.278,-7.55],[-45.496,-7.714],[-45.577,-8.152],[-45.735,-8.433],[-45.766,-8.606],[-45.978,-8.905],[-45.907,-9.295],[-45.796,-9.461],[-45.837,-9.533],[-45.86,-10.001],[-45.954,-10.18],[-45.946,-10.318],[-46.087,-10.208],[-46.348,-10.17],[-46.467,-10.013],[-46.495,-9.869],[-46.669,-9.746],[-46.541,-9.511],[-46.807,-9.362],[-46.89,-9.104],[-47.084,-9.027],[-46.902,-8.827],[-46.922,-8.737],[-46.827,-8.467],[-46.718,-8.407],[-46.49,-8.391],[-46.543,-8.312],[-46.468,-8.081],[-46.487,-7.971],[-46.606,-7.899],[-47.022,-8.039],[-47.408,-7.533],[-47.467,-7.53],[-47.505,-7.447],[-47.591,-7.446],[-47.489,-7.381],[-47.486,-7.302],[-47.588,-7.268],[-47.645,-7.308],[-47.741,-7.193],[-47.64,-7.158],[-47.503,-6.983],[-47.488,-6.698],[-47.377,-6.277],[-47.497,-5.527],[-47.723,-5.392],[-47.839,-5.383],[-47.9,-5.253],[-48.112,-5.266],[-48.338,-5.164],[-48.498,-5.187],[-48.609,-5.329],[-48.678,-5.308],[-48.743,-5.353],[-47.801,-4.596],[-47.661,-4.608],[-47.581,-4.547],[-47.365,-4.254],[-47.311,-4.067],[-47.079,-3.877],[-47.03,-3.569],[-46.968,-3.526],[-46.945,-3.398],[-46.824,-3.328],[-46.701,-3.149],[-46.637,-2.997],[-46.646,-2.892],[-46.571,-2.851],[-46.659,-2.716],[-46.431,-2.527],[-46.427,-2.245],[-46.367,-2.248],[-46.28,-2.141],[-46.209,-1.822],[-46.304,-1.803],[-46.317,-1.741],[-46.201,-1.679],[-46.201,-1.484],[-46.125,-1.346],[-46.166,-1.302]]],[[[-44.481,-2.704],[-44.497,-2.949],[-44.598,-3.06],[-44.576,-2.8],[-44.481,-2.704]]],[[[-42.041,-2.704],[-42.028,-2.745],[-42.085,-2.759],[-42.103,-2.704],[-42.186,-2.676],[-42.041,-2.704]]],[[[-43.627,-2.252],[-43.635,-2.4],[-43.733,-2.42],[-43.715,-2.289],[-43.627,-2.252]]],[[[-44.892,-1.272],[-44.885,-1.326],[-44.92,-1.306],[-44.899,-1.333],[-44.964,-1.391],[-45.019,-1.378],[-44.974,-1.26],[-44.892,-1.272]]],[[[-42.229,-2.693],[-42.149,-2.735],[-42.106,-2.773],[-42.25,-2.736],[-42.229,-2.693]]],[[[-43.809,-2.513],[-43.823,-2.408],[-43.814,-2.455],[-43.757,-2.448],[-43.809,-2.513]]],[[[-43.612,-2.385],[-43.542,-2.371],[-43.574,-2.423],[-43.612,-2.385]]]]}},{"type":"Feature","properties":{"nome":"Piauí","uf":"PI"},"geometry":{"type":"Polygon","coordinates":[[[-41.868,-2.854],[-41.809,-2.745],[-41.675,-2.88],[-41.465,-2.889],[-41.452,-2.943],[-41.336,-2.923],[-41.248,-3.012],[-41.449,-3.437],[-41.229,-4.044],[-41.121,-4.177],[-41.074,-4.326],[-41.236,-4.538],[-41.181,-4.938],[-41.06,-5.169],[-41.07,-5.307],[-40.942,-5.431],[-40.891,-6.011],[-40.719,-6.65],[-40.468,-6.74],[-40.414,-6.818],[-40.581,-7.195],[-40.538,-7.39],[-40.69,-7.43],[-40.62,-7.645],[-40.66,-7.76],[-40.545,-7.832],[-40.544,-8.029],[-40.829,-8.362],[-40.886,-8.348],[-40.923,-8.434],[-41.024,-8.424],[-41.211,-8.635],[-41.371,-8.712],[-41.5,-8.935],[-41.743,-8.989],[-41.734,-9.139],[-41.85,-9.253],[-42.043,-9.208],[-42.15,-9.295],[-42.319,-9.312],[-42.486,-9.499],[-42.584,-9.489],[-42.622,-9.566],[-42.724,-9.524],[-42.85,-9.549],[-42.935,-9.512],[-42.937,-9.45],[-43.113,-9.374],[-43.362,-9.428],[-43.457,-9.303],[-43.517,-9.36],[-43.626,-9.341],[-43.696,-9.446],[-43.821,-9.432],[-43.83,-9.501],[-43.679,-9.851],[-43.707,-10.05],[-43.919,-10.436],[-44.217,-10.63],[-44.407,-10.589],[-44.543,-10.631],[-44.743,-10.772],[-44.803,-10.872],[-45.067,-10.894],[-45.328,-10.774],[-45.442,-10.614],[-45.483,-10.464],[-45.603,-10.332],[-45.946,-10.318],[-45.954,-10.18],[-45.86,-10.001],[-45.837,-9.533],[-45.796,-9.461],[-45.907,-9.295],[-45.968,-8.877],[-45.766,-8.606],[-45.735,-8.433],[-45.577,-8.152],[-45.496,-7.714],[-45.436,-7.646],[-45.278,-7.55],[-44.908,-7.444],[-44.816,-7.364],[-44.697,-7.391],[-44.5,-7.179],[-44.297,-7.103],[-44.162,-6.887],[-44.094,-6.856],[-44.108,-6.819],[-44.063,-6.829],[-43.974,-6.74],[-43.675,-6.701],[-43.422,-6.844],[-43.198,-6.755],[-42.997,-6.761],[-42.926,-6.686],[-42.83,-6.352],[-42.85,-6.254],[-43.076,-6.055],[-43.102,-5.623],[-42.849,-5.34],[-42.802,-5.181],[-42.857,-4.924],[-42.952,-4.777],[-42.949,-4.659],[-42.863,-4.499],[-42.898,-4.404],[-42.966,-4.373],[-42.991,-4.24],[-42.725,-3.911],[-42.663,-3.672],[-42.501,-3.451],[-42.217,-3.434],[-42.1,-3.303],[-42.117,-3.269],[-41.95,-3.176],[-41.813,-2.955],[-41.868,-2.854]]]}},{"type":"Feature","properties":{"nome":"Ceará","uf":"CE"},"geometry":{"type":"Polygon","coordinates":[[[-41.248,-3.012],[-41.264,-2.928],[-41.315,-2.903],[-41.257,-2.875],[-41.083,-2.917],[-41.103,-2.875],[-40.829,-2.883],[-40.5,-2.786],[-39.986,-2.848],[-39.732,-3.032],[-39.619,-3.04],[-39.081,-3.377],[-38.985,-3.396],[-38.916,-3.505],[-38.66,-3.676],[-38.477,-3.697],[-38.378,-3.87],[-38.03,-4.237],[-37.769,-4.396],[-37.649,-4.579],[-37.274,-4.742],[-37.236,-4.83],[-37.583,-4.95],[-37.721,-5.063],[-37.915,-5.463],[-38.048,-5.614],[-38.139,-5.895],[-38.3,-6.074],[-38.457,-6.083],[-38.58,-6.262],[-38.607,-6.397],[-38.531,-6.409],[-38.646,-6.675],[-38.618,-6.768],[-38.744,-6.969],[-38.682,-7.039],[-38.677,-7.157],[-38.549,-7.236],[-38.533,-7.322],[-38.697,-7.62],[-38.869,-7.707],[-38.968,-7.848],[-39.073,-7.854],[-39.115,-7.745],[-39.263,-7.67],[-39.345,-7.551],[-39.654,-7.373],[-39.929,-7.356],[-40.151,-7.418],[-40.538,-7.39],[-40.581,-7.195],[-40.414,-6.818],[-40.468,-6.74],[-40.71,-6.661],[-40.782,-6.468],[-40.794,-6.281],[-40.891,-6.011],[-40.942,-5.431],[-41.07,-5.307],[-41.06,-5.169],[-41.181,-4.938],[-41.244,-4.616],[-41.225,-4.518],[-41.074,-4.326],[-41.087,-4.258],[-41.229,-4.044],[-41.449,-3.437],[-41.248,-3.012]]]}},{"type":"Feature","properties":{"nome":"Rio Grande do Norte","uf":"RN"},"geometry":{"type":"MultiPolygon","coordinates":[[[[-37.236,-4.83],[-37.183,-4.911],[-36.899,-4.938],[-36.791,-5.051],[-36.544,-5.128],[-36.58,-5.081],[-36.281,-5.105],[-35.997,-5.048],[-35.511,-5.144],[-35.39,-5.245],[-35.262,-5.483],[-35.105,-5.996],[-35.093,-6.186],[-35.121,-6.165],[-35.151,-6.216],[-35.096,-6.192],[-35.041,-6.23],[-34.963,-6.503],[-35.306,-6.528],[-35.657,-6.426],[-35.963,-6.462],[-36.252,-6.414],[-36.292,-6.305],[-36.383,-6.303],[-36.508,-6.406],[-36.443,-6.623],[-36.535,-6.638],[-36.502,-6.783],[-36.537,-6.879],[-36.722,-6.978],[-36.771,-6.931],[-36.743,-6.824],[-36.805,-6.761],[-36.997,-6.709],[-37.231,-6.823],[-37.296,-6.715],[-37.521,-6.671],[-37.507,-6.554],[-37.43,-6.518],[-37.382,-6.364],[-37.175,-6.117],[-37.217,-6.026],[-37.75,-6.169],[-37.844,-6.341],[-38.13,-6.52],[-38.288,-6.504],[-38.484,-6.398],[-38.497,-6.347],[-38.607,-6.397],[-38.58,-6.262],[-38.457,-6.083],[-38.3,-6.074],[-38.128,-5.879],[-38.048,-5.614],[-37.915,-5.463],[-37.721,-5.063],[-37.583,-4.95],[-37.236,-4.83]]],[[[-32.437,-3.85],[-32.4,-3.862],[-32.463,-3.878],[-32.437,-3.85]]],[[[-29.408,0.885],[-29.356,0.883],[-29.349,0.853],[-29.41,0.835],[-29.408,0.885]]]]}},{"type":"Feature","properties":{"nome":"Paraíba","uf":"PB"},"geometry":{"type":"Polygon","coordinates":[[[-34.963,-6.503],[-34.943,-6.766],[-34.86,-6.915],[-34.915,-7.131],[-34.84,-6.973],[-34.794,-7.176],[-34.819,-7.548],[-34.978,-7.511],[-35.107,-7.396],[-35.27,-7.381],[-35.385,-7.464],[-35.492,-7.454],[-35.556,-7.654],[-35.856,-7.757],[-35.892,-7.729],[-35.861,-7.795],[-35.929,-7.84],[-36.068,-7.83],[-36.106,-7.775],[-36.168,-7.823],[-36.217,-7.782],[-36.266,-7.825],[-36.416,-7.821],[-36.447,-7.909],[-36.569,-7.925],[-36.653,-7.999],[-36.652,-8.115],[-36.775,-8.22],[-36.95,-8.282],[-37.124,-8.174],[-37.15,-7.978],[-37.347,-7.992],[-37.168,-7.775],[-37.197,-7.573],[-36.993,-7.483],[-37.023,-7.394],[-37.254,-7.27],[-37.477,-7.364],[-37.548,-7.475],[-37.875,-7.665],[-37.961,-7.768],[-38.064,-7.759],[-38.081,-7.821],[-38.146,-7.768],[-38.187,-7.822],[-38.295,-7.836],[-38.354,-7.7],[-38.526,-7.768],[-38.707,-7.606],[-38.531,-7.307],[-38.549,-7.236],[-38.677,-7.157],[-38.74,-6.914],[-38.623,-6.779],[-38.646,-6.675],[-38.505,-6.35],[-38.288,-6.504],[-38.13,-6.52],[-37.844,-6.341],[-37.75,-6.169],[-37.217,-6.026],[-37.175,-6.117],[-37.382,-6.364],[-37.43,-6.518],[-37.507,-6.554],[-37.521,-6.671],[-37.296,-6.715],[-37.231,-6.823],[-36.997,-6.709],[-36.805,-6.761],[-36.743,-6.824],[-36.771,-6.931],[-36.722,-6.978],[-36.537,-6.879],[-36.502,-6.783],[-36.535,-6.638],[-36.443,-6.623],[-36.508,-6.406],[-36.383,-6.303],[-36.292,-6.305],[-36.252,-6.414],[-35.963,-6.462],[-35.657,-6.426],[-35.306,-6.528],[-34.963,-6.503]]]}},{"type":"Feature","properties":{"nome":"Pernambuco","uf":"PE"},"geometry":{"type":"MultiPolygon","coordinates":[[[[-34.893,-7.543],[-34.929,-7.556],[-34.835,-7.563],[-34.805,-7.623],[-34.83,-7.681],[-34.874,-7.618],[-34.864,-7.705],[-34.907,-7.734],[-34.866,-7.718],[-34.892,-7.763],[-34.894,-7.805],[-34.812,-7.933],[-34.851,-8.069],[-34.929,-8.035],[-34.881,-8.09],[-34.939,-8.347],[-35.148,-8.914],[-35.488,-8.833],[-35.722,-8.92],[-35.801,-8.87],[-36.014,-8.894],[-36.346,-9.201],[-36.59,-9.297],[-36.854,-9.266],[-36.955,-9.351],[-37.182,-9.242],[-37.519,-8.944],[-37.671,-8.985],[-37.758,-8.859],[-37.968,-9.142],[-38.102,-9.193],[-38.235,-9.33],[-38.314,-9.132],[-38.287,-9.013],[-38.481,-9.0],[-38.485,-8.837],[-38.564,-8.829],[-38.645,-8.977],[-38.706,-8.841],[-38.797,-8.786],[-38.968,-8.789],[-39.221,-8.677],[-39.288,-8.561],[-39.382,-8.529],[-39.68,-8.65],[-39.69,-8.782],[-39.883,-8.818],[-39.889,-8.959],[-39.969,-9.043],[-40.114,-9.103],[-40.25,-9.071],[-40.335,-9.361],[-40.424,-9.364],[-40.633,-9.488],[-40.758,-9.453],[-40.69,-9.344],[-40.704,-9.222],[-40.853,-9.152],[-40.899,-8.844],[-40.997,-8.775],[-41.09,-8.785],[-41.122,-8.713],[-41.371,-8.712],[-41.211,-8.635],[-41.024,-8.424],[-40.918,-8.432],[-40.886,-8.348],[-40.829,-8.362],[-40.577,-8.103],[-40.531,-7.905],[-40.552,-7.825],[-40.66,-7.76],[-40.621,-7.638],[-40.695,-7.48],[-40.648,-7.399],[-40.151,-7.418],[-39.929,-7.356],[-39.654,-7.373],[-39.345,-7.551],[-39.263,-7.67],[-39.115,-7.745],[-39.073,-7.854],[-38.968,-7.848],[-38.869,-7.707],[-38.697,-7.62],[-38.526,-7.768],[-38.342,-7.703],[-38.255,-7.85],[-38.146,-7.768],[-38.081,-7.821],[-38.058,-7.756],[-37.961,-7.768],[-37.875,-7.665],[-37.548,-7.475],[-37.477,-7.364],[-37.254,-7.27],[-37.023,-7.394],[-36.993,-7.483],[-37.197,-7.573],[-37.168,-7.775],[-37.347,-7.992],[-37.15,-7.978],[-37.124,-8.174],[-36.963,-8.284],[-36.767,-8.214],[-36.632,-8.091],[-36.659,-8.013],[-36.626,-7.966],[-36.447,-7.909],[-36.416,-7.821],[-36.266,-7.825],[-36.217,-7.782],[-36.168,-7.823],[-36.106,-7.775],[-36.068,-7.83],[-35.929,-7.84],[-35.861,-7.795],[-35.892,-7.729],[-35.856,-7.757],[-35.556,-7.654],[-35.492,-7.454],[-35.385,-7.464],[-35.27,-7.381],[-35.107,-7.396],[-34.893,-7.543]]],[[[-34.853,-7.697],[-34.822,-7.739],[-34.845,-7.814],[-34.884,-7.804],[-34.853,-7.697]]]]}},{"type":"Feature","properties":{"nome":"Alagoas","uf":"AL"},"geometry":{"type":"Polygon","coordinates":[[[-35.148,-8.914],[-35.305,-9.193],[-35.658,-9.577],[-35.696,-9.673],[-35.778,-9.7],[-35.746,-9.642],[-35.8,-9.585],[-35.795,-9.679],[-35.858,-9.735],[-35.905,-9.625],[-35.963,-9.611],[-35.874,-9.755],[-35.811,-9.745],[-36.036,-10.064],[-36.281,-10.28],[-36.408,-10.502],[-36.454,-10.411],[-36.566,-10.411],[-36.62,-10.254],[-36.725,-10.258],[-36.931,-10.119],[-36.983,-9.967],[-37.215,-9.897],[-37.358,-9.773],[-37.793,-9.639],[-37.985,-9.536],[-38.021,-9.473],[-38.19,-9.42],[-38.235,-9.33],[-38.102,-9.193],[-37.968,-9.142],[-37.758,-8.859],[-37.671,-8.985],[-37.519,-8.944],[-37.182,-9.242],[-36.939,-9.356],[-36.878,-9.271],[-36.59,-9.297],[-36.346,-9.201],[-36.006,-8.892],[-35.801,-8.87],[-35.722,-8.92],[-35.488,-8.833],[-35.148,-8.914]]]}},{"type":"Feature","properties":{"nome":"Sergipe","uf":"SE"},"geometry":{"type":"Polygon","coordinates":[[[-36.408,-10.502],[-36.577,-10.55],[-36.903,-10.773],[-37.138,-11.126],[-37.275,-11.023],[-37.166,-11.109],[-37.149,-11.187],[-37.265,-11.277],[-37.33,-11.421],[-37.402,-11.4],[-37.272,-11.249],[-37.344,-11.184],[-37.319,-11.27],[-37.347,-11.249],[-37.415,-11.406],[-37.47,-11.359],[-37.396,-11.437],[-37.431,-11.493],[-37.543,-11.539],[-37.634,-11.522],[-37.671,-11.569],[-37.796,-11.524],[-37.849,-11.441],[-37.998,-11.377],[-37.987,-11.219],[-38.063,-11.167],[-38.109,-11.028],[-38.244,-10.872],[-38.191,-10.716],[-37.996,-10.76],[-37.782,-10.628],[-37.836,-10.423],[-37.775,-10.099],[-38.025,-9.748],[-38.016,-9.541],[-37.358,-9.773],[-37.215,-9.897],[-36.983,-9.967],[-36.931,-10.119],[-36.725,-10.258],[-36.62,-10.254],[-36.566,-10.411],[-36.454,-10.411],[-36.408,-10.502]]]}},{"type":"Feature","properties":{"nome":"Bahia","uf":"BA"},"geometry":{"type":"MultiPolygon","coordinates":[[[[-37.483,-11.518],[-37.361,-11.455],[-37.787,-12.265],[-38.32,-12.935],[-38.533,-13.017],[-38.477,-12.935],[-38.509,-12.723],[-38.626,-12.702],[-38.691,-12.571],[-38.807,-12.835],[-38.864,-12.795],[-38.862,-12.654],[-38.924,-12.737],[-38.854,-12.851],[-38.724,-12.873],[-38.787,-13.008],[-38.895,-13.081],[-38.807,-13.144],[-38.948,-13.247],[-38.955,-13.372],[-39.04,-13.367],[-39.04,-13.332],[-39.116,-13.599],[-39.06,-13.495],[-39.012,-13.497],[-38.98,-13.836],[-39.092,-13.713],[-39.149,-13.737],[-39.116,-13.724],[-38.994,-13.863],[-39.075,-13.894],[-38.98,-14.061],[-39.071,-14.076],[-39.075,-14.141],[-39.04,-14.175],[-39.063,-14.11],[-38.957,-14.066],[-38.99,-13.931],[-38.93,-13.898],[-38.924,-14.004],[-39.067,-14.675],[-38.924,-15.716],[-38.862,-15.854],[-39.054,-16.436],[-39.209,-17.162],[-39.188,-17.578],[-39.137,-17.68],[-39.275,-17.867],[-39.499,-18.006],[-39.673,-18.323],[-40.184,-18.009],[-40.229,-17.917],[-40.187,-17.837],[-40.207,-17.766],[-40.407,-17.562],[-40.488,-17.554],[-40.517,-17.364],[-40.61,-17.392],[-40.521,-16.921],[-40.476,-16.869],[-40.309,-16.882],[-40.247,-16.84],[-40.266,-16.581],[-40.137,-16.544],[-40.057,-16.395],[-39.941,-16.313],[-39.861,-16.136],[-39.935,-16.001],[-40.17,-15.897],[-40.225,-15.82],[-40.545,-15.799],[-40.651,-15.719],[-40.75,-15.743],[-40.813,-15.687],[-40.945,-15.674],[-41.14,-15.779],[-41.322,-15.742],[-41.361,-15.495],[-41.801,-15.11],[-42.087,-15.182],[-42.166,-15.108],[-42.286,-15.099],[-42.569,-14.934],[-42.649,-14.932],[-42.953,-14.679],[-43.16,-14.635],[-43.282,-14.653],[-43.492,-14.789],[-43.835,-14.691],[-43.883,-14.562],[-43.794,-14.341],[-44.218,-14.239],[-44.654,-14.398],[-44.882,-14.598],[-45.219,-14.737],[-45.443,-14.932],[-45.558,-14.939],[-45.747,-15.144],[-45.926,-15.127],[-46.083,-15.238],[-45.975,-14.998],[-46.023,-14.869],[-45.915,-14.709],[-45.966,-14.514],[-45.92,-14.351],[-46.126,-14.189],[-46.26,-13.869],[-46.272,-13.657],[-46.214,-13.465],[-46.074,-13.295],[-46.179,-13.211],[-46.162,-13.047],[-46.062,-12.953],[-46.243,-12.779],[-46.16,-12.5],[-46.31,-12.431],[-46.345,-12.342],[-46.331,-12.099],[-46.07,-11.915],[-46.157,-11.836],[-46.261,-11.841],[-46.272,-11.754],[-46.116,-11.675],[-46.084,-11.61],[-46.45,-11.49],[-46.561,-11.363],[-46.562,-11.29],[-46.37,-10.97],[-46.232,-10.898],[-46.302,-10.758],[-45.843,-10.458],[-45.758,-10.331],[-45.581,-10.348],[-45.328,-10.774],[-45.058,-10.896],[-44.803,-10.872],[-44.743,-10.772],[-44.419,-10.59],[-44.223,-10.63],[-44.135,-10.601],[-43.992,-10.453],[-43.919,-10.436],[-43.707,-10.05],[-43.683,-9.802],[-43.836,-9.48],[-43.813,-9.429],[-43.692,-9.443],[-43.626,-9.341],[-43.517,-9.36],[-43.45,-9.304],[-43.35,-9.431],[-43.113,-9.374],[-42.937,-9.45],[-42.935,-9.512],[-42.85,-9.549],[-42.724,-9.524],[-42.622,-9.566],[-42.584,-9.489],[-42.486,-9.499],[-42.319,-9.312],[-42.15,-9.295],[-42.043,-9.208],[-41.85,-9.253],[-41.734,-9.139],[-41.735,-8.982],[-41.5,-8.935],[-41.371,-8.712],[-41.142,-8.709],[-41.09,-8.785],[-40.997,-8.775],[-40.889,-8.857],[-40.853,-9.152],[-40.704,-9.222],[-40.69,-9.344],[-40.758,-9.453],[-40.633,-9.488],[-40.424,-9.364],[-40.335,-9.361],[-40.25,-9.071],[-40.114,-9.103],[-39.969,-9.043],[-39.889,-8.959],[-39.883,-8.818],[-39.69,-8.782],[-39.691,-8.659],[-39.403,-8.534],[-39.288,-8.561],[-39.221,-8.677],[-38.968,-8.789],[-38.797,-8.786],[-38.706,-8.841],[-38.645,-8.977],[-38.528,-8.819],[-38.465,-8.864],[-38.512,-8.947],[-38.481,-9.0],[-38.287,-9.013],[-38.314,-9.132],[-38.198,-9.413],[-38.012,-9.478],[-38.025,-9.748],[-37.773,-10.113],[-37.836,-10.423],[-37.792,-10.653],[-37.996,-10.76],[-38.191,-10.716],[-38.24,-10.885],[-37.987,-11.219],[-37.989,-11.385],[-37.68,-11.569],[-37.634,-11.522],[-37.483,-11.518]]],[[[-39.033,-13.393],[-38.906,-13.389],[-38.896,-13.454],[-38.934,-13.556],[-38.902,-13.672],[-38.979,-13.6],[-38.968,-13.498],[-39.046,-13.458],[-39.033,-13.393]]],[[[-38.697,-12.881],[-38.587,-12.987],[-38.787,-13.134],[-38.791,-13.058],[-38.669,-12.962],[-38.697,-12.881]]]]}},{"type":"Feature","properties":{"nome":"Espírito Santo","uf":"ES"},"geometry":{"type":"MultiPolygon","coordinates":[[[[-39.673,-18.323],[-39.745,-18.682],[-39.71,-19.416],[-39.807,-19.636],[-40.009,-19.747],[-40.097,-19.931],[-40.157,-19.959],[-40.233,-20.267],[-40.369,-20.233],[-40.366,-20.323],[-40.26,-20.321],[-40.418,-20.615],[-40.62,-20.834],[-40.652,-20.808],[-40.758,-20.864],[-40.965,-21.274],[-41.068,-21.214],[-41.255,-21.234],[-41.711,-21.111],[-41.742,-20.822],[-41.881,-20.765],[-41.796,-20.531],[-41.796,-20.427],[-41.853,-20.347],[-41.729,-20.209],[-41.37,-20.191],[-41.305,-19.954],[-41.185,-19.865],[-41.157,-19.66],[-41.037,-19.563],[-41.045,-19.491],[-40.958,-19.466],[-40.945,-19.141],[-41.052,-19.046],[-41.053,-18.93],[-41.24,-18.843],[-40.92,-18.787],[-40.934,-18.679],[-41.028,-18.65],[-41.011,-18.42],[-41.089,-18.356],[-41.149,-18.389],[-41.142,-18.289],[-41.059,-18.179],[-40.919,-18.103],[-40.769,-18.146],[-40.915,-17.952],[-40.792,-17.974],[-40.526,-17.9],[-40.466,-17.93],[-40.437,-17.876],[-39.673,-18.323]]],[[[-29.317,-20.569],[-29.348,-20.561],[-29.344,-20.551],[-29.317,-20.569]]],[[[-28.878,-20.514],[-28.88,-20.511],[-28.877,-20.512],[-28.878,-20.514]]]]}},{"type":"Feature","properties":{"nome":"Rio de Janeiro","uf":"RJ"},"geometry":{"type":"MultiPolygon","coordinates":[[[[-40.965,-21.274],[-40.964,-21.365],[-41.072,-21.523],[-41.019,-21.608],[-40.973,-21.987],[-41.244,-22.145],[-41.666,-22.282],[-41.966,-22.535],[-41.993,-22.7],[-41.935,-22.769],[-41.87,-22.752],[-41.99,-22.826],[-42.014,-22.982],[-42.532,-22.934],[-43.031,-22.974],[-43.131,-22.92],[-43.092,-22.917],[-43.127,-22.882],[-43.025,-22.736],[-43.028,-22.673],[-43.076,-22.666],[-43.27,-22.747],[-43.151,-22.933],[-43.22,-22.995],[-43.989,-23.097],[-43.987,-23.042],[-43.604,-23.008],[-43.85,-22.892],[-44.031,-22.971],[-44.056,-22.94],[-44.115,-23.022],[-44.22,-23.049],[-44.25,-22.996],[-44.353,-22.999],[-44.312,-22.961],[-44.358,-22.92],[-44.457,-23.009],[-44.655,-23.043],[-44.701,-23.108],[-44.708,-23.215],[-44.627,-23.195],[-44.673,-23.23],[-44.68,-23.249],[-44.625,-23.235],[-44.651,-23.285],[-44.583,-23.229],[-44.511,-23.273],[-44.584,-23.353],[-44.728,-23.352],[-44.865,-23.228],[-44.802,-23.127],[-44.792,-22.984],[-44.586,-22.877],[-44.274,-22.82],[-44.162,-22.686],[-44.22,-22.589],[-44.628,-22.605],[-44.758,-22.432],[-44.831,-22.406],[-44.431,-22.252],[-44.24,-22.258],[-43.785,-22.056],[-43.47,-22.058],[-43.328,-22.002],[-43.134,-22.024],[-43.138,-22.097],[-42.312,-21.735],[-42.265,-21.667],[-42.369,-21.634],[-42.367,-21.594],[-42.097,-21.011],[-42.138,-20.956],[-41.975,-20.923],[-41.92,-20.805],[-41.864,-20.777],[-41.742,-20.822],[-41.711,-21.111],[-41.255,-21.234],[-41.068,-21.214],[-40.965,-21.274]]],[[[-44.101,-23.149],[-44.293,-23.173],[-44.328,-23.221],[-44.367,-23.165],[-44.235,-23.069],[-44.101,-23.149]]]]}},{"type":"Feature","properties":{"nome":"São Paulo","uf":"SP"},"geometry":{"type":"MultiPolygon","coordinates":[[[[-44.728,-23.352],[-44.844,-23.385],[-44.919,-23.349],[-45.043,-23.406],[-45.008,-23.461],[-45.07,-23.515],[-45.148,-23.487],[-45.201,-23.572],[-45.413,-23.618],[-45.393,-23.783],[-45.427,-23.831],[-45.864,-23.756],[-46.146,-23.844],[-46.235,-23.913],[-46.112,-23.865],[-46.166,-23.982],[-46.288,-24.021],[-46.317,-24.016],[-46.276,-23.982],[-46.299,-23.925],[-46.385,-23.873],[-46.41,-23.934],[-46.454,-23.926],[-46.376,-24.025],[-46.937,-24.273],[-47.015,-24.423],[-47.051,-24.406],[-47.181,-24.533],[-47.634,-24.756],[-47.826,-24.894],[-47.961,-25.05],[-48.01,-25.044],[-47.973,-25.009],[-48.052,-25.037],[-47.95,-25.08],[-47.887,-25.057],[-47.952,-25.201],[-48.082,-25.307],[-48.032,-25.229],[-48.179,-25.204],[-48.23,-25.014],[-48.277,-25.033],[-48.421,-24.96],[-48.5,-25.083],[-48.575,-25.048],[-48.546,-24.818],[-48.488,-24.746],[-48.582,-24.682],[-48.781,-24.696],[-49.028,-24.634],[-49.053,-24.685],[-49.296,-24.666],[-49.318,-24.542],[-49.222,-24.35],[-49.336,-24.225],[-49.353,-24.113],[-49.596,-23.882],[-49.553,-23.712],[-49.654,-23.512],[-49.614,-23.393],[-49.638,-23.259],[-49.734,-23.099],[-49.894,-23.049],[-49.978,-22.904],[-50.208,-22.949],[-50.385,-22.912],[-50.765,-22.954],[-50.88,-22.822],[-51.347,-22.652],[-51.695,-22.663],[-52.067,-22.522],[-52.14,-22.542],[-52.217,-22.644],[-52.276,-22.597],[-52.947,-22.571],[-53.168,-22.702],[-52.967,-22.459],[-52.843,-22.421],[-52.369,-22.099],[-52.304,-21.925],[-52.044,-21.666],[-52.104,-21.523],[-51.981,-21.479],[-51.867,-21.343],[-51.871,-21.144],[-51.632,-20.877],[-51.58,-20.596],[-51.326,-20.362],[-51.087,-20.263],[-50.894,-20.008],[-50.656,-19.915],[-50.558,-19.808],[-50.457,-19.781],[-50.338,-19.869],[-49.273,-19.968],[-49.243,-19.989],[-49.295,-20.026],[-49.298,-20.144],[-49.216,-20.294],[-49.149,-20.295],[-49.042,-20.143],[-49.003,-20.151],[-48.969,-20.401],[-48.901,-20.439],[-48.867,-20.407],[-48.889,-20.261],[-48.819,-20.151],[-48.401,-20.11],[-48.243,-20.138],[-48.223,-20.014],[-48.072,-20.151],[-48.006,-20.113],[-47.989,-20.028],[-47.927,-20.114],[-47.882,-20.1],[-47.853,-19.983],[-47.715,-19.975],[-47.636,-20.039],[-47.469,-19.959],[-47.439,-20.036],[-47.235,-20.206],[-47.292,-20.438],[-47.145,-20.532],[-47.109,-20.641],[-47.224,-20.908],[-47.145,-20.98],[-47.13,-21.123],[-47.052,-21.203],[-47.001,-21.401],[-46.647,-21.37],[-46.51,-21.454],[-46.519,-21.603],[-46.669,-21.813],[-46.617,-21.99],[-46.698,-22.073],[-46.601,-22.133],[-46.705,-22.307],[-46.653,-22.404],[-46.386,-22.532],[-46.396,-22.627],[-46.476,-22.671],[-46.357,-22.757],[-46.353,-22.858],[-46.15,-22.849],[-46.122,-22.893],[-45.915,-22.818],[-45.864,-22.862],[-45.787,-22.849],[-45.726,-22.745],[-45.809,-22.708],[-45.712,-22.645],[-45.726,-22.589],[-45.648,-22.588],[-45.663,-22.651],[-45.583,-22.617],[-45.519,-22.649],[-45.447,-22.596],[-45.399,-22.651],[-45.115,-22.49],[-44.831,-22.406],[-44.758,-22.432],[-44.605,-22.613],[-44.215,-22.591],[-44.163,-22.692],[-44.274,-22.82],[-44.586,-22.877],[-44.792,-22.984],[-44.802,-23.127],[-44.865,-23.228],[-44.728,-23.352]]],[[[-47.832,-24.913],[-47.448,-24.687],[-47.9,-25.037],[-47.832,-24.913]]],[[[-46.328,-23.926],[-46.292,-23.991],[-46.42,-23.947],[-46.394,-23.92],[-46.328,-23.926]]],[[[-45.214,-23.907],[-45.242,-23.968],[-45.29,-23.912],[-45.422,-23.935],[-45.453,-23.891],[-45.308,-23.721],[-45.228,-23.772],[-45.271,-23.869],[-45.214,-23.907]]]]}},{"type":"Feature","properties":{"nome":"Goiás","uf":"GO"},"geometry":{"type":"Polygon","coordinates":[[[-46.234,-12.797],[-46.062,-12.953],[-46.162,-13.047],[-46.179,-13.211],[-46.074,-13.295],[-46.214,-13.465],[-46.272,-13.657],[-46.26,-13.869],[-46.126,-14.189],[-45.92,-14.351],[-45.966,-14.489],[-45.932,-14.747],[-46.077,-14.922],[-46.192,-14.935],[-46.296,-14.909],[-46.371,-14.785],[-46.517,-14.713],[-46.582,-14.801],[-46.567,-15.057],[-46.616,-15.077],[-46.769,-15.009],[-46.885,-15.041],[-46.929,-15.241],[-46.885,-15.242],[-46.854,-15.317],[-46.937,-15.432],[-46.837,-15.768],[-46.863,-15.881],[-47.129,-15.921],[-47.219,-16.029],[-47.302,-16.04],[-47.359,-15.975],[-47.306,-15.595],[-47.423,-15.498],[-48.179,-15.49],[-48.24,-15.693],[-48.203,-15.735],[-48.277,-15.829],[-48.252,-16.031],[-47.302,-16.04],[-47.327,-16.248],[-47.453,-16.499],[-47.267,-16.662],[-47.151,-16.978],[-47.223,-17.012],[-47.21,-17.076],[-47.334,-17.158],[-47.438,-17.34],[-47.5,-17.33],[-47.531,-17.455],[-47.473,-17.528],[-47.399,-17.5],[-47.271,-17.581],[-47.268,-17.665],[-47.356,-17.831],[-47.278,-18.06],[-47.915,-18.453],[-48.26,-18.349],[-48.952,-18.326],[-49.156,-18.422],[-49.377,-18.631],[-49.514,-18.496],[-49.798,-18.623],[-50.017,-18.617],[-50.298,-18.7],[-50.502,-18.931],[-50.487,-19.015],[-50.545,-19.109],[-50.674,-19.122],[-50.844,-19.295],[-50.871,-19.486],[-50.961,-19.474],[-51.113,-19.293],[-51.842,-19.048],[-52.231,-18.821],[-52.356,-18.81],[-52.483,-18.707],[-52.76,-18.71],[-52.896,-18.665],[-52.769,-18.412],[-52.903,-18.346],[-53.0,-18.386],[-53.051,-18.327],[-53.054,-18.017],[-53.241,-17.622],[-53.198,-17.266],[-53.038,-17.038],[-53.019,-16.868],[-52.809,-16.745],[-52.632,-16.529],[-52.616,-16.426],[-52.676,-16.383],[-52.67,-16.291],[-52.547,-16.241],[-52.532,-16.152],[-52.334,-16.046],[-52.231,-15.899],[-51.883,-15.805],[-51.774,-15.611],[-51.793,-15.539],[-51.712,-15.474],[-51.649,-15.19],[-51.412,-14.995],[-51.32,-14.956],[-51.255,-15.015],[-51.1,-14.888],[-50.97,-14.519],[-50.998,-14.399],[-50.925,-14.122],[-50.846,-14.084],[-50.866,-13.716],[-50.796,-13.676],[-50.755,-13.534],[-50.6,-13.303],[-50.587,-13.074],[-50.495,-12.951],[-50.446,-12.7],[-50.32,-12.512],[-50.13,-12.419],[-50.273,-12.773],[-50.258,-12.921],[-49.684,-13.176],[-49.398,-13.25],[-49.138,-12.735],[-49.004,-12.654],[-49.008,-12.74],[-48.798,-12.929],[-48.749,-13.385],[-48.685,-13.338],[-48.644,-13.163],[-48.385,-13.192],[-48.166,-13.065],[-48.169,-13.18],[-47.667,-13.356],[-47.725,-13.168],[-47.662,-13.104],[-47.533,-13.298],[-47.092,-13.095],[-46.778,-13.055],[-46.619,-12.904],[-46.234,-12.797]]]}},{"type":"Feature","properties":{"nome":"Distrito Federal","uf":"DF"},"geometry":{"type":"Polygon","coordinates":[[[-48.179,-15.49],[-47.423,-15.498],[-47.306,-15.595],[-47.359,-15.975],[-47.302,-16.04],[-48.252,-16.031],[-48.277,-15.829],[-48.203,-15.735],[-48.24,-15.693],[-48.179,-15.49]]]}},{"type":"Feature","properties":{"nome":"Minas Gerais","uf":"MG"},"geometry":{"type":"Polygon","coordinates":[[[-46.511,-14.712],[-46.371,-14.785],[-46.288,-14.912],[-46.095,-14.932],[-46.023,-14.869],[-45.975,-14.998],[-46.066,-15.246],[-45.926,-15.127],[-45.747,-15.144],[-45.558,-14.939],[-45.406,-14.911],[-45.224,-14.74],[-44.882,-14.598],[-44.836,-14.519],[-44.563,-14.345],[-44.321,-14.246],[-44.002,-14.273],[-43.792,-14.344],[-43.883,-14.562],[-43.835,-14.691],[-43.492,-14.789],[-43.223,-14.636],[-42.953,-14.679],[-42.649,-14.932],[-42.569,-14.934],[-42.286,-15.099],[-42.166,-15.108],[-42.087,-15.182],[-41.801,-15.11],[-41.361,-15.495],[-41.322,-15.742],[-41.14,-15.779],[-40.945,-15.674],[-40.813,-15.687],[-40.75,-15.743],[-40.651,-15.719],[-40.545,-15.799],[-40.225,-15.82],[-40.17,-15.897],[-39.935,-16.001],[-39.861,-16.128],[-39.941,-16.313],[-40.057,-16.395],[-40.137,-16.544],[-40.266,-16.581],[-40.247,-16.84],[-40.309,-16.882],[-40.48,-16.871],[-40.574,-17.122],[-40.607,-17.398],[-40.517,-17.364],[-40.488,-17.554],[-40.407,-17.562],[-40.207,-17.766],[-40.207,-17.979],[-40.441,-17.874],[-40.466,-17.93],[-40.526,-17.9],[-40.792,-17.974],[-40.911,-17.949],[-40.769,-18.146],[-40.932,-18.106],[-41.139,-18.284],[-41.149,-18.389],[-41.089,-18.356],[-41.009,-18.425],[-41.028,-18.65],[-40.934,-18.679],[-40.918,-18.78],[-40.959,-18.823],[-41.17,-18.806],[-41.24,-18.843],[-41.053,-18.93],[-41.052,-19.046],[-40.943,-19.146],[-40.96,-19.471],[-41.045,-19.491],[-41.037,-19.563],[-41.157,-19.66],[-41.185,-19.865],[-41.305,-19.954],[-41.37,-20.191],[-41.729,-20.209],[-41.85,-20.342],[-41.796,-20.531],[-41.853,-20.632],[-41.809,-20.639],[-41.966,-20.915],[-42.138,-20.956],[-42.097,-21.011],[-42.367,-21.594],[-42.369,-21.634],[-42.27,-21.656],[-42.28,-21.714],[-43.138,-22.097],[-43.134,-22.024],[-43.328,-22.002],[-43.47,-22.058],[-43.785,-22.056],[-44.24,-22.258],[-44.431,-22.252],[-44.652,-22.365],[-45.057,-22.466],[-45.399,-22.651],[-45.447,-22.596],[-45.519,-22.649],[-45.583,-22.617],[-45.663,-22.651],[-45.648,-22.588],[-45.726,-22.589],[-45.712,-22.645],[-45.809,-22.708],[-45.726,-22.745],[-45.78,-22.846],[-45.864,-22.862],[-45.915,-22.818],[-46.122,-22.893],[-46.15,-22.849],[-46.349,-22.863],[-46.357,-22.757],[-46.476,-22.671],[-46.396,-22.627],[-46.386,-22.532],[-46.653,-22.404],[-46.703,-22.315],[-46.601,-22.133],[-46.698,-22.073],[-46.617,-21.99],[-46.669,-21.813],[-46.519,-21.603],[-46.508,-21.459],[-46.647,-21.37],[-47.001,-21.401],[-47.052,-21.203],[-47.13,-21.123],[-47.145,-20.98],[-47.224,-20.908],[-47.109,-20.641],[-47.145,-20.532],[-47.292,-20.438],[-47.235,-20.206],[-47.439,-20.036],[-47.469,-19.959],[-47.636,-20.039],[-47.715,-19.975],[-47.853,-19.983],[-47.882,-20.1],[-47.927,-20.114],[-47.989,-20.028],[-48.006,-20.113],[-48.072,-20.151],[-48.223,-20.014],[-48.243,-20.138],[-48.401,-20.11],[-48.819,-20.151],[-48.889,-20.261],[-48.867,-20.407],[-48.901,-20.439],[-48.969,-20.401],[-49.003,-20.151],[-49.042,-20.143],[-49.149,-20.295],[-49.216,-20.294],[-49.298,-20.144],[-49.295,-20.026],[-49.243,-19.989],[-49.273,-19.968],[-50.338,-19.869],[-50.49,-19.782],[-50.994,-20.102],[-51.028,-19.754],[-50.989,-19.583],[-50.937,-19.549],[-50.953,-19.459],[-50.839,-19.463],[-50.881,-19.411],[-50.844,-19.295],[-50.674,-19.122],[-50.545,-19.109],[-50.487,-19.015],[-50.502,-18.931],[-50.298,-18.7],[-50.017,-18.617],[-49.798,-18.623],[-49.514,-18.496],[-49.377,-18.631],[-49.156,-18.422],[-48.952,-18.326],[-48.26,-18.349],[-47.915,-18.453],[-47.278,-18.06],[-47.356,-17.831],[-47.268,-17.665],[-47.271,-17.581],[-47.399,-17.5],[-47.478,-17.525],[-47.53,-17.428],[-47.5,-17.33],[-47.438,-17.34],[-47.409,-17.251],[-47.151,-16.967],[-47.267,-16.662],[-47.442,-16.523],[-47.436,-16.417],[-47.327,-16.248],[-47.302,-16.04],[-47.219,-16.029],[-47.129,-15.921],[-46.836,-15.864],[-46.868,-15.591],[-46.93,-15.546],[-46.936,-15.425],[-46.854,-15.317],[-46.885,-15.242],[-46.929,-15.241],[-46.894,-15.059],[-46.793,-15.009],[-46.567,-15.057],[-46.582,-14.801],[-46.511,-14.712]]]}},{"type":"Feature","properties":{"nome":"Tocantins","uf":"TO"},"geometry":{"type":"Polygon","coordinates":[[[-45.758,-10.331],[-45.843,-10.458],[-46.302,-10.758],[-46.232,-10.898],[-46.37,-10.97],[-46.571,-11.316],[-46.442,-11.495],[-46.085,-11.601],[-46.105,-11.666],[-46.275,-11.765],[-46.261,-11.841],[-46.157,-11.836],[-46.07,-11.915],[-46.335,-12.11],[-46.317,-12.424],[-46.16,-12.503],[-46.234,-12.797],[-46.301,-12.833],[-46.591,-12.894],[-46.778,-13.055],[-47.092,-13.095],[-47.533,-13.298],[-47.662,-13.104],[-47.725,-13.168],[-47.667,-13.356],[-48.169,-13.18],[-48.166,-13.065],[-48.385,-13.192],[-48.644,-13.163],[-48.682,-13.331],[-48.744,-13.385],[-48.798,-12.929],[-49.008,-12.74],[-49.004,-12.654],[-49.138,-12.735],[-49.398,-13.25],[-49.684,-13.176],[-50.258,-12.921],[-50.273,-12.773],[-50.126,-12.457],[-50.15,-12.4],[-50.351,-12.542],[-50.484,-12.845],[-50.599,-12.805],[-50.675,-12.607],[-50.612,-12.431],[-50.683,-12.042],[-50.644,-11.89],[-50.712,-11.745],[-50.651,-11.6],[-50.743,-11.502],[-50.612,-11.061],[-50.599,-10.657],[-50.406,-10.299],[-50.378,-10.105],[-50.15,-9.7],[-50.054,-9.319],[-49.755,-8.923],[-49.565,-8.811],[-49.381,-8.437],[-49.305,-8.368],[-49.163,-7.804],[-49.348,-7.679],[-49.39,-7.547],[-49.189,-7.247],[-49.216,-6.925],[-49.011,-6.781],[-48.683,-6.663],[-48.606,-6.435],[-48.501,-6.351],[-48.38,-6.36],[-48.425,-6.157],[-48.284,-6.098],[-48.333,-5.976],[-48.223,-5.914],[-48.297,-5.749],[-48.186,-5.701],[-48.141,-5.627],[-48.209,-5.539],[-48.297,-5.517],[-48.377,-5.394],[-48.556,-5.413],[-48.723,-5.355],[-48.678,-5.308],[-48.6,-5.322],[-48.498,-5.187],[-48.338,-5.164],[-48.112,-5.266],[-47.9,-5.253],[-47.839,-5.383],[-47.723,-5.392],[-47.497,-5.527],[-47.377,-6.277],[-47.488,-6.698],[-47.503,-6.983],[-47.64,-7.158],[-47.741,-7.193],[-47.645,-7.308],[-47.588,-7.268],[-47.486,-7.302],[-47.489,-7.381],[-47.591,-7.446],[-47.505,-7.447],[-47.467,-7.53],[-47.408,-7.533],[-47.022,-8.039],[-46.6,-7.899],[-46.491,-7.964],[-46.466,-8.069],[-46.543,-8.312],[-46.49,-8.391],[-46.718,-8.407],[-46.827,-8.467],[-46.922,-8.737],[-46.902,-8.827],[-47.081,-9.035],[-46.89,-9.104],[-46.807,-9.362],[-46.541,-9.511],[-46.669,-9.746],[-46.495,-9.869],[-46.467,-10.013],[-46.348,-10.17],[-46.087,-10.208],[-45.946,-10.318],[-45.758,-10.331]]]}}]}